CityName,RegionName,Address,DeptNm,BranchNm,Longitude,Latitude,direct,limit
設置縣市,設置市區鄉鎮,設置地址,管轄警局,管轄分局,經度,緯度,拍攝方向,速限
宜蘭縣,宜蘭市,宜興橋南端(往羅東)+50m南下,宜蘭縣政府警察局,宜蘭分局,121.759873,24.760711,北向南,50
宜蘭縣,宜蘭市,中山路1段560號前北上,宜蘭縣政府警察局,宜蘭分局,121.761045,24.738028,南向北,60
宜蘭縣,宜蘭市,台9線79k+550m環市東路與192線路口北上,宜蘭縣政府警察局,宜蘭分局,121.770743,24.767034,南向北,70
宜蘭縣,宜蘭市,台9線80k+700m環市東路黎霧橋南端南下,宜蘭縣政府警察局,宜蘭分局,121.771352,24.756818,北向南,70
宜蘭縣,宜蘭市,台9線81k+650m環市東路北上,宜蘭縣政府警察局,宜蘭分局,121.771590,24.748297,南向北,70
宜蘭縣,宜蘭市,台9線82k+200m環市東路與宜14線路口南下,宜蘭縣政府警察局,宜蘭分局,121.771682,24.743659,北向南,70
宜蘭縣,宜蘭市,191甲線與宜14線路口北上,宜蘭縣政府警察局,宜蘭分局,121.781764,24.744093,南向北,60
宜蘭縣,羅東鎮,公正路324號西向,宜蘭縣政府警察局,羅東分局,121.761418,24.680589,東向西,40
宜蘭縣,蘇澳鎮,台9線131ｋ+700ｍ南澳段北上,宜蘭縣政府警察局,蘇澳分局,121.793661,24.462545,南北雙向,50
宜蘭縣,蘇澳鎮,台9線100k新城段北上,宜蘭縣政府警察局,蘇澳分局,121.821268,24.615464,南北雙向,60
宜蘭縣,蘇澳鎮,台9線124k+570m新澳隧道北上,宜蘭縣政府警察局,蘇澳分局,121.830233,24.490236,南向北,40
宜蘭縣,蘇澳鎮,台2線164k+390m港邊段南下,宜蘭縣政府警察局,蘇澳分局,121.852780,24.611954,南北雙向,70
宜蘭縣,蘇澳鎮,台2線167k+002m移山路北上,宜蘭縣政府警察局,蘇澳分局,121.859499,24.590791,南北雙向,60
宜蘭縣,頭城鎮,台9線69ｋ+20ｍ北宜路一段南下,宜蘭縣政府警察局,礁溪分局,121.792649,24.845619,南北雙向,60
宜蘭縣,頭城鎮,宜3線3k+850m宜三路南下,宜蘭縣政府警察局,礁溪分局,121.796028,24.849210,南北雙向,50
宜蘭縣,頭城鎮,191線2ｋ+50ｍ中崙段南下,宜蘭縣政府警察局,礁溪分局,121.801373,24.828067,南北雙向,60
宜蘭縣,頭城鎮,台2線139k+738ｍ竹安段南下,宜蘭縣政府警察局,礁溪分局,121.820688,24.824111,南北雙向,60
宜蘭縣,頭城鎮,台2線133k+769ｍ港口段南下,宜蘭縣政府警察局,礁溪分局,121.835544,24.871765,南北雙向,60
宜蘭縣,頭城鎮,台2線129k+309m梗枋國小南下,宜蘭縣政府警察局,礁溪分局,121.863454,24.900975,南北雙向,50
宜蘭縣,頭城鎮,台2線128k+754m梗枋段南下,宜蘭縣政府警察局,礁溪分局,121.866727,24.903869,南北雙向,60
宜蘭縣,頭城鎮,台2線123ｋ+642ｍ大溪段北上,宜蘭縣政府警察局,礁溪分局,121.891277,24.939224,南北雙向,50
宜蘭縣,頭城鎮,台2線126k+757m北關段北上,宜蘭縣政府警察局,礁溪分局,121.897606,24.914801,南北雙向,60
宜蘭縣,頭城鎮,台2線122k+634ｍ大溪段南下,宜蘭縣政府警察局,礁溪分局,121.900106,24.941515,北向南,60
宜蘭縣,頭城鎮,台2線120k+632ｍ蕃薯寮段南下,宜蘭縣政府警察局,礁溪分局,121.914235,24.952927,南北雙向,60
宜蘭縣,頭城鎮,台2線118k+49m大里段南下,宜蘭縣政府警察局,礁溪分局,121.926086,24.970086,南北雙向,50
宜蘭縣,礁溪鄉,191線6ｋ+600ｍ玉田段北上,宜蘭縣政府警察局,礁溪分局,121.784228,24.789582,南北雙向,60
宜蘭縣,壯圍鄉,191甲線與雪隧路口南下,宜蘭縣政府警察局,礁溪分局,121.778517,24.766776,北向南,60
宜蘭縣,壯圍鄉,宜16線7k+500ｍ新南段西向,宜蘭縣政府警察局,礁溪分局,121.783039,24.720304,東西雙向,50
宜蘭縣,壯圍鄉,宜16線9ｋ+500ｍ美福段東向,宜蘭縣政府警察局,礁溪分局,121.802651,24.719269,東西雙向,50
宜蘭縣,壯圍鄉,宜20線1ｋ+150m新南段西向,宜蘭縣政府警察局,礁溪分局,121.808557,24.727465,東西雙向,60
宜蘭縣,壯圍鄉,台2線147ｋ+40ｍ過嶺國小南下,宜蘭縣政府警察局,礁溪分局,121.815483,24.758748,南北雙向,60
宜蘭縣,壯圍鄉,台2線142k+480ｍ大福段北上,宜蘭縣政府警察局,礁溪分局,121.816581,24.799720,南北雙向,60
宜蘭縣,壯圍鄉,台2線150ｋ+199m公館段南下,宜蘭縣政府警察局,礁溪分局,121.819155,24.730360,南北雙向,60
宜蘭縣,員山鄉,台7線114k+550ｍ內城段東向,宜蘭縣政府警察局,宜蘭分局,121.700933,24.717842,東西雙向,60
宜蘭縣,員山鄉,宜18-2線9ｋ深溝段西向,宜蘭縣政府警察局,宜蘭分局,121.709622,24.707457,東西雙向,50
宜蘭縣,員山鄉,台7線117k八甲段西向,宜蘭縣政府警察局,宜蘭分局,121.716391,24.732751,東西雙向,60
宜蘭縣,員山鄉,宜61線900ｍ深溝段南下,宜蘭縣政府警察局,宜蘭分局,121.717964,24.720016,南北雙向,60
宜蘭縣,員山鄉,宜61線1ｋ+200ｍ深溝段北上,宜蘭縣政府警察局,宜蘭分局,121.718649,24.717430,南北雙向,60
宜蘭縣,員山鄉,宜16線溪洲路346號東向,宜蘭縣政府警察局,宜蘭分局,121.738594,24.714243,東西雙向,50
宜蘭縣,員山鄉,宜16線溪洲路150號西向,宜蘭縣政府警察局,宜蘭分局,121.748119,24.719000,東西雙向,50
宜蘭縣,冬山鄉,台9線94k+450ｍ冬山段南下,宜蘭縣政府警察局,羅東分局,121.785569,24.645604,北向南,60
宜蘭縣,五結鄉,宜22線1k+400ｍ二結段東向,宜蘭縣政府警察局,羅東分局,121.766192,24.710798,東西雙向,60
宜蘭縣,五結鄉,台7丙線28k+75ｍ中山路東向,宜蘭縣政府警察局,羅東分局,121.789493,24.672573,東西雙向,60
宜蘭縣,五結鄉,191甲線與宜24線路口南下,宜蘭縣政府警察局,羅東分局,121.791144,24.688986,北向南,60
宜蘭縣,五結鄉,191甲線與196線路口北上,宜蘭縣政府警察局,羅東分局,121.792581,24.683813,南向北,60
宜蘭縣,五結鄉,五結鄉191甲線與傳藝路口南下,宜蘭縣政府警察局,羅東分局,121.793192,24.680323,北向南,60
宜蘭縣,五結鄉,五結鄉台七丙線29K+800M親河路西向,宜蘭縣政府警察局,羅東分局,121.805192,24.673484,東西雙向,60
宜蘭縣,五結鄉,宜22線6ｋ錦草段西向,宜蘭縣政府警察局,羅東分局,121.810574,24.709386,東西雙向,60
宜蘭縣,五結鄉,台2線157k+652m利澤段北上,宜蘭縣政府警察局,羅東分局,121.828344,24.664686,南向北,60
宜蘭縣,三星鄉,196線3ｋ+800ｍ萬富東向,宜蘭縣政府警察局,三星分局,121.677256,24.677272,東西雙向,60
宜蘭縣,三星鄉,台7丙線18ｋ+500ｍ大隱段東向,宜蘭縣政府警察局,三星分局,121.697628,24.667261,東西雙向,60
宜蘭縣,三星鄉,台7丙線20ｋ大隱段西向,宜蘭縣政府警察局,三星分局,121.712174,24.670205,東西雙向,60
宜蘭縣,三星鄉,196線7ｋ+900ｍ大義段西向,宜蘭縣政府警察局,三星分局,121.718395,24.687069,東西雙向,60
宜蘭縣,三星鄉,宜61線3ｋ+600ｍ大洲段南下,宜蘭縣政府警察局,三星分局,121.727883,24.698070,北向南,60
宜蘭縣,三星鄉,宜61線3ｋ+800ｍ大洲段北上,宜蘭縣政府警察局,三星分局,121.728929,24.696065,南北雙向,60
宜蘭縣,三星鄉,宜196線11ｋ大洲段東向,宜蘭縣政府警察局,三星分局,121.742263,24.700823,東西雙向,50
宜蘭縣,南澳鄉,台9線130ｋ+450ｍ南澳段南下,宜蘭縣政府警察局,蘇澳分局,121.806452,24.467581,南北雙向,50
新竹縣,竹北市,西濱公路一段鳳鼻隧道南端(台15線69公里)雙向,新竹縣政府警察局,竹北分局,120.954720,24.879170,,
新竹縣,竹北市,西濱公路與埔和路口(台15線64.4公里)南向,新竹縣政府警察局,竹北分局,120.971940,24.901670,,
新竹縣,竹北市,西濱公路與117線路口(台15線62公里)北向,新竹縣政府警察局,竹北分局,120.989170,24.924170,,
新竹縣,竹北市,中華路1432號前(台1線65.5公里)南向,新竹縣政府警察局,竹北分局,120.991525,24.863388,,
新竹縣,竹北市,台一線大眉南下路口,新竹縣政府警察局,竹北分局,120.996110,24.858330,,
新竹縣,竹北市,中華路、鳳岡路口(台1線67.2公里)雙向,新竹縣政府警察局,竹北分局,120.996110,24.859170,,
新竹縣,竹北市,中華路1號前(台1線70.6公里)北向,新竹縣政府警察局,竹北分局,120.997220,24.825000,,
新竹縣,竹北市,八德路一段35號前(台1線61公里)南向,新竹縣政府警察局,竹北分局,121.026940,24.883610,,
新竹縣,竹北市,八德路、千禧路口(台1線60.6公里)北向,新竹縣政府警察局,竹北分局,121.028330,24.885560,,
新竹縣,竹北市,東興路二段316號前(120線7.1公里)雙向,新竹縣政府警察局,竹北分局,121.055011,24.797277,,
新竹縣,竹北市,八德路2段(台1線54.9公里)雙向,新竹縣政府警察局,竹北分局,121.084523,24.887028,,
新竹縣,竹東鎮,台3線91.6公里北向,新竹縣政府警察局,竹東分局,120.978806,24.694741,,
新竹縣,竹東鎮,雙園路2段(竹82線1公里)南向,新竹縣政府警察局,竹東分局,120.997581,24.767564,,
新竹縣,竹東鎮,台三線北上91.6公里北向,新竹縣政府警察局,竹東分局,121.017780,24.688610,,
新竹縣,竹東鎮,中興路四段372號前(122線14公里)西向,新竹縣政府警察局,竹東分局,121.029440,24.779720,,
新竹縣,竹東鎮,中盛村路口(台3線84.7公里)南向,新竹縣政府警察局,竹東分局,121.031390,24.691390,,
新竹縣,竹東鎮,台三線中豐路老爺山莊路口,新竹縣政府警察局,竹東分局,121.047780,24.774440,,
新竹縣,竹東鎮,台68線12.85公里(快速道路)東向,新竹縣政府警察局,竹東分局,121.065280,24.764440,,
新竹縣,竹東鎮,台68線12.55公里(快速道路)西向,新竹縣政府警察局,竹東分局,121.065560,24.762780,,
新竹縣,竹東鎮,中興路一段109號前(122線18.16公里)東向,新竹縣政府警察局,竹東分局,121.075639,24.752638,,
新竹縣,竹東鎮,中豐路三段333巷口(台3線78公里)北向,新竹縣政府警察局,竹東分局,121.078272,24.723793,,
新竹縣,新埔鎮,文山路亞東段369號西向,新竹縣政府警察局,新埔分局,121.059170,24.825000,,
新竹縣,新埔鎮,新關路1046巷口東向,新竹縣政府警察局,新埔分局,121.101670,24.817780,,
新竹縣,新埔鎮,石光里702號前(118線17.3公里)西向,新竹縣政府警察局,新埔分局,121.112780,24.816940,,
新竹縣,新埔鎮,南新里新城9鄰1號(台3線62.3公里)北向,新竹縣政府警察局,新埔分局,121.173060,24.763610,,
新竹縣,新埔鎮,190號東光陸橋(台3線60.6公里)南向,新竹縣政府警察局,新埔分局,121.176670,24.776940,,
新竹縣,橫山鄉,富林路三段、文德路口(120線10.4公里)東向,新竹縣政府警察局,橫山分局,121.073610,24.774440,,
新竹縣,橫山鄉,富林路二段竹林交流道(120線11.8公里)西向,新竹縣政府警察局,橫山分局,121.079440,24.764440,,
新竹縣,橫山鄉,中豐路一段、站前街口(台3線72.9公里)南向,新竹縣政府警察局,橫山分局,121.116940,24.720280,,
苗栗縣,苗栗市,臺13線35.2公里處,苗栗縣警察局,苗栗分局,120.807780,24.535830,南向北,60
苗栗縣,苗栗市,新川里柑園5號前處,苗栗縣警察局,苗栗分局,120.808890,24.569440,東向西,60
苗栗縣,苗栗市,臺13線30.3公里處,苗栗縣警察局,苗栗分局,120.820051,24.561242,南北雙向,50
苗栗縣,苗栗市,臺13線31.1公里處(信義街口),苗栗縣警察局,苗栗分局,120.820051,24.561242,南向北,50
苗栗縣,苗栗市,臺6線(經國路)14.5公里處,苗栗縣警察局,苗栗分局,120.833890,24.555000,東西雙向,70
苗栗縣,苑裡鎮,苑北里中山路與成功路口處,苗栗縣警察局,通霄分局,120.652810,24.445635,北向南,50
苗栗縣,苑裡鎮,140線8.1公里處,苗栗縣警察局,通霄分局,120.677505,24.409826,西向東,60
苗栗縣,苑裡鎮,140線與苗47之1線口處,苗栗縣警察局,通霄分局,120.677505,24.409826,東向西,50
苗栗縣,苑裡鎮,140線與121線口處,苗栗縣警察局,通霄分局,120.698482,24.384112,東向西,60
苗栗縣,苑裡鎮,臺1線140.8公里處(臨海路口),苗栗縣警察局,通霄分局,120.821427,24.560159,北向南,60
苗栗縣,通霄鎮,臺1線124.1公里處(拱天宮前),苗栗縣警察局,通霄分局,120.678431,24.492468,北向南,60
苗栗縣,通霄鎮,臺1線124.8公里處(啟新國中前),苗栗縣警察局,通霄分局,120.691696,24.516985,南向北,60
苗栗縣,通霄鎮,臺1線137.2公里處(五福國小陸橋下),苗栗縣警察局,通霄分局,120.691696,24.516985,南向北,60
苗栗縣,通霄鎮,128線2.4公里處,苗栗縣警察局,通霄分局,120.723499,24.485028,東向西,60
苗栗縣,通霄鎮,臺1線134.7公里與121線口處,苗栗縣警察局,通霄分局,120.821427,24.560159,北向南,60
苗栗縣,竹南鎮,臺61線91公里快(側)車道與博愛街口處,苗栗縣警察局,竹南分局,120.821427,24.560159,南向北,40
苗栗縣,竹南鎮,臺61線90.4公里與苗3-3線路口處,苗栗縣警察局,竹南分局,120.843565,24.677557,北向南,80
苗栗縣,竹南鎮,環市路與公教路口處（清寧橋前）,苗栗縣警察局,竹南分局,120.869135,24.685066,東向西,60
苗栗縣,竹南鎮,臺1己線3公里處,苗栗縣警察局,竹南分局,120.872405,24.688701,西向東,60
苗栗縣,竹南鎮,臺1線與苗2線口處(科學路口),苗栗縣警察局,竹南分局,120.877216,24.688734,南向北,70
苗栗縣,竹南鎮,臺1己線1.3公里與明勝路口處,苗栗縣警察局,竹南分局,120.878603,24.700922,東向西,60
苗栗縣,竹南鎮,臺13線(永貞路)與公園路口處,苗栗縣警察局,竹南分局,120.885306,24.701554,北向南,60
苗栗縣,竹南鎮,臺13線2.5公里與友義路口處,苗栗縣警察局,竹南分局,120.897234,24.709484,南向北,60
苗栗縣,頭份市,124線8.45公里處,苗栗縣警察局,頭份分局,120.886940,24.685000,東向西,50
苗栗縣,頭份市,124線10.75公里處,苗栗縣警察局,頭份分局,120.888330,24.685830,東向西,50
苗栗縣,頭份市,臺1線95.2公里處(紡安紡織公司口),苗栗縣警察局,頭份分局,120.896543,24.683493,南向北,60
苗栗縣,頭份市,124線9.8公里處,苗栗縣警察局,頭份分局,120.900830,24.685830,西向東,50
苗栗縣,頭份市,中央路(頭份國中前),苗栗縣警察局,頭份分局,120.901115,24.692100,東西雙向,50
苗栗縣,頭份市,臺1線98.3公里處,苗栗縣警察局,頭份分局,120.902065,24.685159,南向北,70
苗栗縣,頭份市,臺1線與苗10線口處,苗栗縣警察局,頭份分局,120.902065,24.685159,北向南,70
苗栗縣,頭份市,臺1線91.6公里與科東二路口處,苗栗縣警察局,頭份分局,120.902065,24.685159,北向南,60
苗栗縣,頭份市,中華路440號處,苗栗縣警察局,頭份分局,120.905549,24.687418,南向北,60
苗栗縣,頭份市,臺13線12.1公里處（尖山國小前）,苗栗縣警察局,頭份分局,120.905549,24.687418,南向北,60
苗栗縣,頭份市,124甲線1公里東向與土牛社區路口處,苗栗縣警察局,頭份分局,120.905549,24.687418,西向東,50
苗栗縣,頭份市,124甲線1公里西向與土牛社區路口處,苗栗縣警察局,頭份分局,120.905549,24.687418,東向西,50
苗栗縣,後龍鎮,臺61線與苗11線口處,苗栗縣警察局,竹南分局,120.773605,24.624644,南向北,80
苗栗縣,後龍鎮,臺6線3.7公里處(後龍交流道附近),苗栗縣警察局,竹南分局,120.787220,24.597220,西向東,60
苗栗縣,後龍鎮,臺1線與成功路口處,苗栗縣警察局,竹南分局,120.821427,24.560159,南向北,60
苗栗縣,後龍鎮,臺13甲線12.4公里處,苗栗縣警察局,竹南分局,120.831670,24.605560,北向南,60
苗栗縣,卓蘭鎮,臺3線146.8公里處（豐田國小旁）,苗栗縣警察局,大湖分局,120.821783,24.310795,北向南,60
苗栗縣,大湖鄉,臺3線131.6公里處,苗栗縣警察局,大湖分局,120.805664,24.226929,南向北,60
苗栗縣,大湖鄉,臺3線與中原路口處,苗栗縣警察局,大湖分局,120.860429,24.395475,南向北,60
苗栗縣,大湖鄉,臺3線119.6公里處,苗栗縣警察局,大湖分局,120.860429,24.395475,南、北雙向,60
苗栗縣,大湖鄉,臺3線與苗55線口處(南湖國小前),苗栗縣警察局,大湖分局,120.860429,24.395475,南向北,60
苗栗縣,公館鄉,臺72線24公里處,苗栗縣警察局,苗栗分局,120.823851,24.537396,東西雙向,80
苗栗縣,公館鄉,119甲線(沿山道)3.4公里處,苗栗縣警察局,苗栗分局,120.835830,24.528890,北向南,60
苗栗縣,銅鑼鄉,臺13線與128線口處,苗栗縣警察局,苗栗分局,120.781187,24.463588,北向南,60
苗栗縣,銅鑼鄉,臺13線與苗38－1線口處（外環道與九湖橋頭）,苗栗縣警察局,苗栗分局,120.787443,24.490655,北向南,60
苗栗縣,銅鑼鄉,128線與苗27線口處,苗栗縣警察局,苗栗分局,120.790228,24.491713,北向南,60
苗栗縣,銅鑼鄉,臺72線與119甲線口處,苗栗縣警察局,苗栗分局,120.802561,24.499394,東向西,80
苗栗縣,南庄鄉,臺3線與苗20線口處,苗栗縣警察局,頭份分局,120.998709,24.601582,南向北,60
苗栗縣,三義鄉,臺13線52.4公里處(龍騰派出所前),苗栗縣警察局,苗栗分局,120.743330,24.366940,北向南,60
苗栗縣,三義鄉,140線15.3公里處,苗栗縣警察局,苗栗分局,120.769476,24.389263,東西向,60
苗栗縣,三義鄉,140線20公里處,苗栗縣警察局,苗栗分局,120.773013,24.411831,東西雙向,60
苗栗縣,造橋鄉,臺1線102.2公里處（育達大學前）,苗栗縣警察局,竹南分局,120.844081,24.642979,南向北,70
苗栗縣,造橋鄉,南外環道0.4公里處,苗栗縣警察局,竹南分局,120.861379,24.624807,南北雙向,60
苗栗縣,造橋鄉,臺1線與苗9線口處（談文派出所前）,苗栗縣警察局,竹南分局,120.861379,24.624807,南向北,70
苗栗縣,三灣鄉,臺3線102.8公里處,苗栗縣警察局,頭份分局,120.930260,24.630529,南北雙向,60
苗栗縣,三灣鄉,臺3線95.3公里處,苗栗縣警察局,頭份分局,120.954399,24.648899,南向北,60
苗栗縣,三灣鄉,臺3線101.5公里處(大河老街口),苗栗縣警察局,頭份分局,120.956316,24.636398,南向北,60
苗栗縣,獅潭鄉,臺3線108公里處,苗栗縣警察局,大湖分局,120.714829,23.803983,南、北雙向,60
苗栗縣,獅潭鄉,臺3線111.8公里處,苗栗縣警察局,大湖分局,120.916464,24.529580,北向南,60
苗栗縣,獅潭鄉,臺3線113.5公里處,苗栗縣警察局,大湖分局,120.916464,24.529580,北向南,60
苗栗縣,獅潭鄉,臺3線120.9公里處,苗栗縣警察局,大湖分局,120.916464,24.529580,北向南,60
苗栗縣,獅潭鄉,臺3線113.1公里處(獅潭國中旁),苗栗縣警察局,大湖分局,120.923610,24.545000,北向南,60
彰化縣,彰化市,金馬、忠誠路口,彰化縣警察局,彰化分局,120.531110,24.084720,南向,70
彰化縣,彰化市,中山、孔門路口,彰化縣警察局,彰化分局,120.544720,24.078610,北向,50
彰化縣,彰化市,建國北路,彰化縣警察局,彰化分局,120.550560,24.091940,西向,50
彰化縣,彰化市,中興路與介壽橋口,彰化縣警察局,彰化分局,120.552500,24.070280,西向,50
彰化縣,彰化市,中山、中正路口,彰化縣警察局,彰化分局,120.552500,24.083890,北向,50
彰化縣,彰化市,台74甲線與彰員路口,彰化縣警察局,彰化分局,120.555560,24.023330,南向,70
彰化縣,彰化市,金馬路一段、泰和路二段415巷口,彰化縣警察局,彰化分局,120.557220,24.098330,北向,70
彰化縣,彰化市,台1線186.8公里,彰化縣警察局,彰化分局,120.580280,24.101110,北向,70
彰化縣,彰化市,台14丙線、三竹路口,彰化縣警察局,彰化分局,120.583060,24.095000,西向,70
彰化縣,彰化市,台74甲線3.4公里,彰化縣警察局,彰化分局,120.593662,24.073111,南向,70
彰化縣,彰化市,台74甲線2.2公里,彰化縣警察局,彰化分局,120.594440,24.082220,東西雙向,70
彰化縣,彰化市,台14線、福興路口,彰化縣警察局,彰化分局,120.621940,24.045280,東向,70
彰化縣,鹿港鎮,台17線31.7公里,彰化縣警察局,鹿港分局,120.445830,24.086390,北向,70
彰化縣,鹿港鎮,台17線31.3公里(長安宮前),彰化縣警察局,鹿港分局,120.448060,24.090830,南向,70
彰化縣,和美鎮,線東路五段291號南側170公尺處,彰化縣警察局,和美分局,120.489979,24.126819,北向,60
彰化縣,和美鎮,和美鎮和港路與西興路、北明路口,彰化縣警察局,和美分局,120.495883,24.114036,北向,60
彰化縣,和美鎮,彰美、中興路口,彰化縣警察局,和美分局,120.524170,24.099170,西向,60
彰化縣,福興鄉,沿海路、龍舟路路口,彰化縣警察局,鹿港分局,120.431013,24.048855,西向,50
彰化縣,福興鄉,福興鄉縣道144線與南環路口,彰化縣警察局,鹿港分局,120.444224,24.033230,東向,70
彰化縣,福興鄉,福興鄉彰鹿路6段與彰鹿路6段314巷路口,彰化縣警察局,鹿港分局,120.462977,24.046333,西向,60
彰化縣,福興鄉,台19線、番花路口,彰化縣警察局,鹿港分局,120.488610,24.016110,南向,60
彰化縣,秀水鄉,彰鹿路、民意街口,彰化縣警察局,鹿港分局,120.496674,24.050226,東向,60
彰化縣,秀水鄉,台19線、安鶴路口,彰化縣警察局,鹿港分局,120.511110,24.050560,北向,60
彰化縣,花壇鄉,台1線198.4公里,彰化縣警察局,彰化分局,120.538890,24.026940,,
彰化縣,花壇鄉,中山路1段95號(福安宮前),彰化縣警察局,彰化分局,120.543890,24.021670,北向,70
彰化縣,芬園鄉,芬園鄉大彰路與縣安路口,彰化縣警察局,彰化分局,120.626873,24.010653,東向,50
彰化縣,員林市,莒光路、員鹿路路口,彰化縣警察局,員林分局,120.566196,23.957156,南向,60
彰化縣,員林市,員林大道(30米外環道)、員集路口,彰化縣警察局,員林分局,120.575981,23.947822,西向,50
彰化縣,田中鎮,田中鎮斗中路與大社南路(彰95高鐵站連接道路)路口,彰化縣警察局,田中分局,120.576788,23.862650,西向,60
彰化縣,田中鎮,縣141線13.3公里南下,彰化縣警察局,田中分局,120.594440,23.845830,南向,60
彰化縣,田中鎮,員集路、東閔路路口,彰化縣警察局,田中分局,120.601130,23.839055,北向,60
彰化縣,大村鄉,台1線201.4公里,彰化縣警察局,員林分局,120.561940,23.944170,南北雙向,70
彰化縣,大村鄉,縣146線12.3公里中正東路東往西,彰化縣警察局,員林分局,120.563610,23.989170,西向,60
彰化縣,埔鹽鄉,埔鹽鄉彰水路二段與中山路口,彰化縣警察局,溪湖分局,120.476150,23.997436,北向,60
彰化縣,埔心鄉,埔心鄉員林大道(30米外環道)與員鹿路路口,彰化縣警察局,員林分局,120.562217,23.957081,南向,50
彰化縣,永靖鄉,永靖鄉中山路1段與中山路1段 351巷路口,彰化縣警察局,北斗分局,120.546314,23.922073,南向,70
彰化縣,社頭鄉,縣141線6.6公里北上,彰化縣警察局,田中分局,120.585000,23.862780,北向,60
彰化縣,二水鄉,縣152線與二水鄉外環道(外環道路口),彰化縣警察局,田中分局,120.619720,23.806110,南向,50
彰化縣,二水鄉,二水鄉縣141線21.594公里(二水鄉南通路二段398號對面),彰化縣警察局,田中分局,120.628014,23.801483,南向,50
彰化縣,二水鄉,縣152線與二水鄉外環道(往名間方向),彰化縣警察局,田中分局,120.674440,23.816940,南向,50
彰化縣,北斗鎮,斗苑路、斗苑二路307巷口,彰化縣警察局,北斗分局,120.510235,23.878146,東向,60
彰化縣,北斗鎮,北斗鎮中山路與斗苑路口,彰化縣警察局,北斗分局,120.517192,23.873513,南向,50
彰化縣,田尾鄉,台1線214.6公里南下,彰化縣警察局,北斗分局,120.506390,23.861670,南向,50
彰化縣,田尾鄉,台1線214公里北上,彰化縣警察局,北斗分局,120.507220,23.862500,北向,70
彰化縣,埤頭鄉,彰水路、庄子路口,彰化縣警察局,北斗分局,120.460796,23.894117,北向,70
彰化縣,埤頭鄉,台19線25.3公里北上東外環,彰化縣警察局,北斗分局,120.469720,23.898610,北向,70
彰化縣,埤頭鄉,埤頭鄉東環路與庄子路282巷路口,彰化縣警察局,田中分局,120.476714,23.896596,南向,70
彰化縣,芳苑鄉,台17線與新上路口,彰化縣警察局,芳苑分局,120.307500,23.903330,南向,70
彰化縣,芳苑鄉,台17線59.3公里(芳苑鄉芳新路芳苑段801號),彰化縣警察局,芳苑分局,120.323610,23.934170,南北雙向,70
彰化縣,芳苑鄉,台17線53.7公里,彰化縣警察局,芳苑分局,120.334720,23.952220,南北雙向,70
彰化縣,芳苑鄉,台17線、功湖路口,彰化縣警察局,芳苑分局,120.346670,23.964170,北向,70
彰化縣,芳苑鄉,台17線、中正路口,彰化縣警察局,芳苑分局,120.352220,23.975000,北向,70
彰化縣,竹塘鄉,竹塘鄉中央路二段大湖路口,彰化縣警察局,北斗分局,120.426277,23.862357,南向,70
彰化縣,溪州鄉,台1線219.7公里(溪洲外環道),彰化縣警察局,北斗分局,120.470280,23.834440,北向,70
彰化縣,溪州鄉,台1線218.4公里處(溪州鄉中山路4段287號),彰化縣警察局,北斗分局,120.483112,23.848319,南北雙向,70
南投縣,南投市,華陽路850號前,南投縣政府警察局,南投分局,120.678246,23.930109,南北雙向,60
南投縣,南投市,東閔路1.35公里,南投縣政府警察局,中興分局,120.686228,23.936150,北向南,60
南投縣,南投市,台3線215.5公里,南投縣政府警察局,南投分局,120.689876,23.888296,南北雙向,60
南投縣,埔里鎮,台21線50.8公里,南投縣政府警察局,埔里分局,120.931840,23.944330,北向南,60
南投縣,埔里鎮,台21線49.9公里,南投縣政府警察局,埔里分局,120.937636,23.948852,南向北,60
南投縣,草屯鎮,台14乙線5.9公里,南投縣政府警察局,草屯分局,120.655079,23.963616,南北雙向,70
南投縣,草屯鎮,台63甲線0.3公里闖紅燈,南投縣政府警察局,草屯分局,120.677848,24.002890,南向北,60
南投縣,草屯鎮,台63甲線1.2公里,南投縣政府警察局,草屯分局,120.679626,23.996204,南北雙向,60
南投縣,草屯鎮,台14線富功國小前,南投縣政府警察局,草屯分局,120.698436,23.978879,東向西,50
南投縣,草屯鎮,東草屯交流道永安路1.8公里,南投縣政府警察局,草屯分局,120.722468,23.996404,南北雙向,50
南投縣,竹山鎮,大明路與前山路口闖紅燈,南投縣政府警察局,竹山分局,120.679295,23.757366,南向北,60
南投縣,竹山鎮,社寮產業運輸道路2.15公里處,南投縣政府警察局,竹山分局,120.705372,23.808374,南北雙向,40
南投縣,竹山鎮,台3線227.7公里,南投縣政府警察局,竹山分局,120.709379,23.789067,南北雙向,60
南投縣,竹山鎮,社寮產業運輸道路4.5公里處,南投縣政府警察局,竹山分局,120.721655,23.823490,南北雙向,40
南投縣,集集鎮,台16線2.37公里,南投縣政府警察局,集集分局,120.730961,23.834897,東西雙向,70
南投縣,集集鎮,台16線4.8公里闖紅燈及測速,南投縣政府警察局,集集分局,120.752475,23.828298,東向西,70
雲林縣,斗六市,台1丁線公路與久安路口,雲林縣警察局,斗六分局,120.508235,23.691449,東西雙向,70
雲林縣,斗六市,大學路與雲林科技大學前路口,雲林縣警察局,斗六分局,120.533080,23.695943,西向東,60
雲林縣,斗六市,台3線公路252k+65m處,雲林縣警察局,斗六分局,120.546494,23.699762,南向北,60
雲林縣,斗六市,154乙縣道13k+200m處(環科大前),雲林縣警察局,斗六分局,120.552562,23.680203,南向北,60
雲林縣,斗六市,斗六市台3線公路與成功路口,雲林縣警察局,斗六分局,120.553460,23.702804,南向北,70
雲林縣,斗六市,台3線公路248k+970m處,雲林縣警察局,斗六分局,120.597945,23.736148,南向北,60
雲林縣,斗南鎮,台78線快速公路29k+400m處(西向東),雲林縣警察局,斗南分局,120.451889,23.673025,西向東,100
雲林縣,斗南鎮,台78線快速公路29k+400m處(東向西),雲林縣警察局,斗南分局,120.451929,23.673211,東向西,100
雲林縣,斗南鎮,台1線公路與文昌路口(南向北),雲林縣警察局,斗南分局,120.480838,23.679547,南向北,60
雲林縣,斗南鎮,台1線公路與文昌路口(北向南),雲林縣警察局,斗南分局,120.480858,23.680340,北向南,60
雲林縣,斗南鎮,台1丁線公路12k+800m處(新光陸橋),雲林縣警察局,斗南分局,120.492336,23.683597,西向東,60
雲林縣,虎尾鎮,158縣道與博愛路口,雲林縣警察局,虎尾分局,120.436048,23.719143,西向東,60
雲林縣,虎尾鎮,158縣道與林森路一段路口,雲林縣警察局,虎尾分局,120.441329,23.717179,東向西,60
雲林縣,虎尾鎮,145乙縣道與雲71線路口前(東向西),雲林縣警察局,虎尾分局,120.458277,23.735708,東向西,60
雲林縣,虎尾鎮,台1線公路與雲74線路口(惠來派出所前),雲林縣警察局,虎尾分局,120.488912,23.728313,南北雙向,70
雲林縣,西螺鎮,154甲縣道1k處(高鐵橋下),雲林縣警察局,西螺分局,120.430581,23.788077,東向西,60
雲林縣,西螺鎮,145縣道與福來路20巷路口(12.6k處-北向),雲林縣警察局,西螺分局,120.445057,23.778845,南向北,60
雲林縣,西螺鎮,台1線公路與振興路口(北向南),雲林縣警察局,西螺分局,120.470463,23.790655,北向南,50
雲林縣,西螺鎮,台1線公路與振興路口(南向北),雲林縣警察局,西螺分局,120.470754,23.790069,南向北,50
雲林縣,土庫鎮,158縣道18k處,雲林縣警察局,虎尾分局,120.353135,23.701317,東向西,70
雲林縣,土庫鎮,145縣道29k處(土庫外環道),雲林縣警察局,虎尾分局,120.388552,23.670492,北向南,60
雲林縣,北港鎮,164縣道14k+800m處(扶朝段),雲林縣警察局,北港分局,120.283415,23.567299,東向西,60
雲林縣,北港鎮,台19線公路與145線道路口,雲林縣警察局,北港分局,120.299399,23.583764,北向南,60
雲林縣,大埤鄉,台1線公路247k+500m處(豐田段),雲林縣警察局,斗南分局,120.468266,23.633721,南向北,70
雲林縣,大埤鄉,台1線公路246k+400m處(豐田段),雲林縣警察局,斗南分局,120.469456,23.639185,北向南,70
雲林縣,莿桐鄉,台1線公路235k+592m處,雲林縣警察局,斗六分局,120.494443,23.742592,南向北,60
雲林縣,莿桐鄉,台1線公路與中正路口,雲林縣警察局,斗六分局,120.496770,23.757749,北向南,70
雲林縣,莿桐鄉,156縣道與莿桐外環道(孩沙里)路口,雲林縣警察局,斗六分局,120.506427,23.766708,北向南,60
雲林縣,莿桐鄉,台1丁線公路與農校路口,雲林縣警察局,斗六分局,120.508674,23.750402,北向南,60
雲林縣,林內鄉,台3線公路238k+268m處,雲林縣警察局,斗六分局,120.611653,23.760244,南向北,60
雲林縣,麥寮鄉,雲3線海豐村忠和路131號前,雲林縣警察局,臺西分局,120.225595,23.766041,南向北,60
雲林縣,麥寮鄉,工業路與雲3號路口(西向東),雲林縣警察局,臺西分局,120.234594,23.792047,西向東,60
雲林縣,麥寮鄉,工業路與4k+500m處路口,雲林縣警察局,臺西分局,120.236775,23.791571,西向東,70
雲林縣,麥寮鄉,工業路與雲3號路口(東向西),雲林縣警察局,臺西分局,120.239156,23.791637,東向西,60
雲林縣,麥寮鄉,台17線公路與工業路口,雲林縣警察局,臺西分局,120.278653,23.796310,南向北,60
雲林縣,麥寮鄉,台17線公路與154縣道路口(橋頭),雲林縣警察局,臺西分局,120.278654,23.796334,北向南,60
雲林縣,東勢鄉,台78線快速公路13k處(西向東),雲林縣警察局,臺西分局,120.207337,23.685221,西向東,100
雲林縣,東勢鄉,113縣道湖東橋前路段,雲林縣警察局,臺西分局,120.240268,23.655547,東向西,60
雲林縣,東勢鄉,新坤路與158甲縣道路口,雲林縣警察局,臺西分局,120.253293,23.721405,北向南,60
雲林縣,東勢鄉,153縣道1k處,雲林縣警察局,臺西分局,120.255278,23.738637,北向南,60
雲林縣,東勢鄉,153線與158甲線縣道路口,雲林縣警察局,臺西分局,120.256620,23.720883,南向北,60
雲林縣,東勢鄉,153縣道嘉勝路與守密街路口(南向),雲林縣警察局,臺西分局,120.259013,23.665485,北向南,50
雲林縣,東勢鄉,台78線快速公路13k處(東向西),雲林縣警察局,臺西分局,120.306909,23.685089,東向西,100
雲林縣,褒忠鄉,台19線公路與158縣道路口,雲林縣警察局,虎尾分局,120.324073,23.698270,北向南,70
雲林縣,褒忠鄉,台19線公路53k+500m處,雲林縣警察局,虎尾分局,120.324422,23.708207,南向北,70
雲林縣,臺西鄉,155縣道民權路47-8號前,雲林縣警察局,臺西分局,120.200159,23.703784,北向南,50
雲林縣,臺西鄉,155縣道4k+800m處,雲林縣警察局,臺西分局,120.208820,23.669996,北向南,60
雲林縣,元長鄉,160縣道20k+947m處(子茂段),雲林縣警察局,虎尾分局,120.335692,23.658913,東向西,60
雲林縣,四湖鄉,155線四湖國中前,雲林縣警察局,臺西分局,120.227541,23.630302,北向南,60
雲林縣,口湖鄉,台17線公路97k+842m處,雲林縣警察局,北港分局,120.166895,23.623926,北向南,70
嘉義縣,太保市,台18線1.5K(後庄段),嘉義縣警察局,水上分局,120.328725,23.472518,由東向西,70
嘉義縣,民雄鄉,台1線255.5K(鎮北段),嘉義縣警察局,民雄分局,120.439569,23.578737,由南向北,70
嘉義縣,新港鄉,159線南壇段水月橋,嘉義縣警察局,民雄分局,120.324978,23.560233,由東向西,60
嘉義縣,六腳鄉,台19線73.1K(六美國小),嘉義縣警察局,朴子分局,120.292695,23.539839,由南向北,50
嘉義縣,東石鄉,台82線4.65K,嘉義縣警察局,朴子分局,120.190986,23.456659,由東向西,70
嘉義縣,梅山鄉,台3線272.2K(大南國小),嘉義縣警察局,竹崎分局,120.553921,23.558527,由北向南,60
屏東縣,屏東市,高屏大橋屏東端南北雙向,屏東縣政府警察局,屏東分局,120.439440,22.647780,,
屏東縣,屏東市,環河路段南北雙向,屏東縣政府警察局,屏東分局,120.450153,22.650532,,
屏東縣,屏東市,建國路清進巷口南下,屏東縣政府警察局,屏東分局,120.461670,22.654170,,
屏東縣,屏東市,建國路與和生路路口北上,屏東縣政府警察局,屏東分局,120.466670,22.656110,,
屏東縣,屏東市,中山路與自由路路口南下,屏東縣政府警察局,屏東分局,120.484440,22.684170,,
屏東縣,屏東市,台27線61.7K公館外環道南北雙向,屏東縣政府警察局,屏東分局,120.485280,22.635280,,
屏東縣,屏東市,台27線59.7K復興南路與公成路口北上,屏東縣政府警察局,屏東分局,120.485560,22.640830,,
屏東縣,屏東市,台3線429.5K九如機場西側外環道南下,屏東縣政府警察局,里港分局,120.488060,22.710280,,
屏東縣,屏東市,台3線432.7K屏東監理站前南下,屏東縣政府警察局,屏東分局,120.489170,22.693060,,
屏東縣,屏東市,台3線430.9K海豐果菜市場附近南北雙向,屏東縣政府警察局,屏東分局,120.490560,22.705830,,
屏東縣,屏東市,189線1.3K大溪路口南下,屏東縣政府警察局,屏東分局,120.494440,22.585560,,
屏東縣,屏東市,民生東路與和生路,屏東縣政府警察局,屏東分局,120.511390,22.659720,,
屏東縣,屏東市,民生路與和生路路口南下,屏東縣政府警察局,屏東分局,120.511390,22.659720,,
屏東縣,屏東市,台27線65.5K丹榮路段南北雙向,屏東縣政府警察局,屏東分局,120.533656,22.713223,,
屏東縣,屏東市,屏21線神農西路段,屏東縣政府警察局,屏東分局,120.533774,22.713886,,
屏東縣,屏東市,屏26線神農德華路口東西雙向,屏東縣政府警察局,屏東分局,120.542220,22.717780,,
屏東縣,潮州鎮,台1線三林路口,屏東縣政府警察局,潮州分局,22.550808,120.555654,,
屏東縣,潮州鎮,台3線418.9K里港土庫段南北雙向,屏東縣政府警察局,潮州分局,120.481288,23.683811,,
屏東縣,潮州鎮,189線11.3K大湖橋北上,屏東縣政府警察局,潮州分局,120.511940,22.578610,,
屏東縣,潮州鎮,台88線20.6K快速道路北上,屏東縣政府警察局,潮州分局,120.520560,22.569440,,
屏東縣,潮州鎮,台88線20.6K快速道路南下,屏東縣政府警察局,潮州分局,120.521670,22.570560,,
屏東縣,潮州鎮,台一線420.1K潮州武丁路口南下,屏東縣政府警察局,潮州分局,120.530830,22.517220,,
屏東縣,潮州鎮,屏85線與屏83線路口南下,屏東縣政府警察局,潮州分局,120.534440,22.577780,,
屏東縣,潮州鎮,台一線417K潮州段南北雙向,屏東縣政府警察局,潮州分局,120.540000,22.536940,,
屏東縣,潮州鎮,台一線413.4K潮州四維路口北上,屏東縣政府警察局,潮州分局,120.553330,22.562500,,
屏東縣,潮州鎮,台一線409.6K竹田段南下,屏東縣政府警察局,潮州分局,120.553330,22.588610,,
屏東縣,潮州鎮,台一線414.7K潮州三林路口南下,屏東縣政府警察局,潮州分局,120.555830,22.551670,,
屏東縣,東港鎮,大鵬灣環灣道路3K南北雙向處,屏東縣政府警察局,東港分局,22.439495,120.471446,,
屏東縣,東港鎮,大鵬灣環灣道路12K處南北雙向,屏東縣政府警察局,東港分局,22.439495,120.471446,,
屏東縣,東港鎮,187乙線南州鄉勝利路段,屏東縣政府警察局,東港分局,22.492243,120.538934,,
屏東縣,東港鎮,台27線74.4K興安段南北雙向,屏東縣政府警察局,東港分局,22.666328,120.481920,,
屏東縣,東港鎮,台17線253.5K與學仁路口北上,屏東縣政府警察局,東港分局,120.456940,22.480830,,
屏東縣,東港鎮,台27線79.5K與台17線交叉口南下,屏東縣政府警察局,東港分局,120.459170,22.491670,,
屏東縣,東港鎮,台27線71.1K仙公廟南北雙向,屏東縣政府警察局,東港分局,120.460280,22.544170,,
屏東縣,東港鎮,台27線76K港西路口南下,屏東縣政府警察局,東港分局,120.462220,22.511670,,
屏東縣,東港鎮,台17線256.7K東港船頭路口南下,屏東縣政府警察局,東港分局,120.466110,22.461940,,
屏東縣,東港鎮,187線35.5K與187乙線路口南下,屏東縣政府警察局,東港分局,120.472500,22.486390,,
屏東縣,東港鎮,台17線258.5K東港大鵬灣段南北雙向,屏東縣政府警察局,東港分局,120.479720,22.457500,,
屏東縣,東港鎮,屏58線7.1K與崁頂南二高平面道路路口南下,屏東縣政府警察局,東港分局,120.530830,22.542500,,
屏東縣,東港鎮,屏58線7.1K與崁頂南二高平面道路路口北上,屏東縣政府警察局,東港分局,120.531670,22.542500,,
屏東縣,東港鎮,台一線422.8K南州台糖加油站前南下,屏東縣政府警察局,東港分局,120.538330,22.492780,,
屏東縣,恆春鎮,台26線7.8K竹坑村路口北上,屏東縣政府警察局,恆春分局,120.701670,22.140830,,
屏東縣,恆春鎮,台26線16.4K車城分駐所前南下,屏東縣政府警察局,恆春分局,120.714170,22.073330,,
屏東縣,恆春鎮,台27線74.4K興安段南北雙向,屏東縣政府警察局,恆春分局,120.737858,22.037137,,
屏東縣,恆春鎮,台26線20K處南北雙向,屏東縣政府警察局,恆春分局,120.740000,22.001110,,
屏東縣,恆春鎮,台26線22.9K南北雙向,屏東縣政府警察局,恆春分局,120.743069,22.024392,,
屏東縣,恆春鎮,台26線28.8K核三廠前南下,屏東縣政府警察局,恆春分局,120.756390,21.968610,,
屏東縣,恆春鎮,台26線29.5K潭子灣路段南下,屏東縣政府警察局,恆春分局,120.778330,21.950560,,
屏東縣,萬丹鄉,萬丹鄉西環路與和平西路口,屏東縣政府警察局,屏東分局,22.589386,120.487029,,
屏東縣,里港鄉,台3線里港鄉420.5K處南北雙向,屏東縣政府警察局,里港分局,22.797155,120.502095,,
屏東縣,里港鄉,里港鄉台3線414.7K土庫段南北雙向,屏東縣政府警察局,里港分局,22.797155,120.502095,,
屏東縣,里港鄉,台3線428.4K九如玉水路段南北雙向,屏東縣政府警察局,里港分局,120.488330,22.718330,,
屏東縣,里港鄉,台三線426.3K九如林森路口南下,屏東縣政府警察局,里港分局,120.489440,22.737500,,
屏東縣,里港鄉,台3線424.3K九如南二高入口處北上,屏東縣政府警察局,里港分局,120.491390,22.750830,,
屏東縣,里港鄉,台22線與台3線421.6K交會口北上,屏東縣政府警察局,里港分局,120.494170,22.772500,,
屏東縣,里港鄉,台27線48.5K大仁東街路口南下,屏東縣政府警察局,里港分局,120.540830,22.726670,,
屏東縣,內埔鄉,台1線內埔學人路口,屏東縣政府警察局,內埔分局,22.595239,120.557359,,
屏東縣,內埔鄉,台1線內埔復興路口,屏東縣政府警察局,內埔分局,22.608299,120.559742,,
屏東縣,內埔鄉,台一線405K內埔豐田段南北雙向,屏東縣政府警察局,內埔分局,120.558890,22.611940,,
屏東縣,內埔鄉,屏東縣 內埔鄉 台一線內埔學人路口,屏東縣政府警察局,內埔分局,120.558890,22.611940,,
屏東縣,內埔鄉,台24線14.8K久愛村口南下,屏東縣政府警察局,內埔分局,120.606110,22.722500,,
屏東縣,枋寮鄉,台26線5.7K竹坑村口北上,屏東縣政府警察局,枋寮分局,22.135327,120.705066,,
屏東縣,枋寮鄉,台一線447.7K內獅段南北雙向,屏東縣政府警察局,枋寮分局,22.384763,120.595036,,
屏東縣,枋寮鄉,台17線265.3K名成汽車保養場前南下,屏東縣政府警察局,枋寮分局,120.541940,22.419720,,
屏東縣,枋寮鄉,台一線432.4K南北雙向,屏東縣政府警察局,枋寮分局,120.580000,22.423330,,
屏東縣,枋寮鄉,台一線35.6k南上,屏東縣政府警察局,枋寮分局,120.588432,22.404522,,
屏東縣,枋寮鄉,台一線435.9K水底寮建興五叉路口南下,屏東縣政府警察局,枋寮分局,120.593610,22.388060,,
屏東縣,枋寮鄉,台一線438.7K枋寮隆山路口南下,屏東縣政府警察局,枋寮分局,120.608060,22.367500,,
屏東縣,枋寮鄉,台一線442.2K加祿段南下,屏東縣政府警察局,枋寮分局,120.615830,22.335000,,
屏東縣,枋寮鄉,台一線446.3K內獅路口南北雙向,屏東縣政府警察局,枋寮分局,120.619170,22.331390,,
屏東縣,枋寮鄉,台一線451.8K枋山國中路口北上,屏東縣政府警察局,枋寮分局,120.653330,22.263610,,
屏東縣,新園鄉,187線港東路口,屏東縣政府警察局,東港分局,22.491622,120.478774,,
屏東縣,崁頂鄉,崁頂鄉187線31.2K崁頂段南北雙向,屏東縣政府警察局,東港分局,22.515843,120.499121,,
屏東縣,佳冬鄉,台17線與佳冬農校出口,屏東縣政府警察局,枋寮分局,22.409823,120.563710,,
屏東縣,佳冬鄉,台一線428.5k北上,屏東縣政府警察局,枋寮分局,120.557392,22.448629,,
屏東縣,車城鄉,台26線30公里處北上,屏東縣政府警察局,恆春分局,21.942952,120.802474,,
屏東縣,車城鄉,台26線31.6公里灣仔路段南下,屏東縣政府警察局,恆春分局,22.037603,120.737729,,
屏東縣,車城鄉,台26線14.4K車城分駐所前南下,屏東縣政府警察局,恆春分局,22.061512,120.716305,,
屏東縣,滿州鄉,台26線3.7k南北雙向,屏東縣政府警察局,枋寮分局,120.692885,22.181366,,
屏東縣,獅子鄉,台9線丹路段`,屏東縣政府警察局,潮州分局,22.210905,120.760472,,
臺東縣,臺東市,臺9線389.45K(建和國小前),臺東縣警察局,臺東分局,121.049599,22.716474,,
臺東縣,臺東市,臺9線386.1K(蘇巴陽段),臺東縣警察局,臺東分局,121.057084,22.743983,,
臺東縣,臺東市,臺11線176K知本派出所前,臺東縣警察局,臺東分局,121.057166,22.705902,,
臺東縣,臺東市,臺11線174.3K(聖母農莊前),臺東縣警察局,臺東分局,121.072182,22.710924,,
臺東縣,臺東市,臺9線381K(體育中學前),臺東縣警察局,臺東分局,121.075411,22.771429,,
臺東縣,臺東市,中興路與利嘉路口,臺東縣警察局,臺東分局,121.084303,22.774357,,
臺東縣,臺東市,知本路與大學路口,臺東縣警察局,臺東分局,121.085335,22.720740,,
臺東縣,臺東市,臺9線368.9K（綠色隧道北端）,臺東縣警察局,臺東分局,121.095026,22.800650,,
臺東縣,臺東市,臺9線370.3K(十股段),臺東縣警察局,臺東分局,121.105995,22.792590,,
臺東縣,臺東市,臺11線168.7Ｋ(台糖加油站),臺東縣警察局,臺東分局,121.120433,22.728712,,
臺東縣,臺東市,更生路馬蘭榮家前,臺東縣警察局,臺東分局,121.131533,22.772708,,
臺東縣,臺東市,正氣北路與大業路口,臺東縣警察局,臺東分局,121.131549,22.754997,,
臺東縣,臺東市,更生路與中興路口,臺東縣警察局,臺東分局,121.136184,22.768042,,
臺東縣,臺東市,馬亨亨大道(貓山段),臺東縣警察局,臺東分局,121.137378,22.777982,,
臺東縣,臺東市,新生路與正氣路口,臺東縣警察局,臺東分局,121.143147,22.757097,,
臺東縣,臺東市,四維路與傳廣路口,臺東縣警察局,臺東分局,121.143676,22.765784,,
臺東縣,臺東市,中興路與傳廣路口,臺東縣警察局,臺東分局,121.143762,22.767956,,
臺東縣,臺東市,中華路與桂林北路口,臺東縣警察局,臺東分局,121.143786,22.747066,,
臺東縣,臺東市,新生路與博愛路口,臺東縣警察局,臺東分局,121.145894,22.754426,,
臺東縣,臺東市,新生路與中山路口,臺東縣警察局,臺東分局,121.148074,22.752714,,
臺東縣,臺東市,更生路與博愛路口,臺東縣警察局,臺東分局,121.149148,22.757880,,
臺東縣,臺東市,四維路與浙江路口,臺東縣警察局,臺東分局,121.149448,22.765765,,
臺東縣,臺東市,中山路與更生路口,臺東縣警察局,臺東分局,121.151044,22.755735,,
臺東縣,臺東市,中正路與中山路口,臺東縣警察局,臺東分局,121.152015,22.756833,,
臺東縣,臺東市,中華路與中正路口,臺東縣警察局,臺東分局,121.154016,22.755127,,
臺東縣,臺東市,臨海路與大同路口,臺東縣警察局,臺東分局,121.156590,22.750482,,
臺東縣,臺東市,馬亨亨大道與中山路口,臺東縣警察局,臺東分局,121.157958,22.762591,,
臺東縣,臺東市,中華路與強國街口,臺東縣警察局,臺東分局,121.158105,22.759421,,
臺東縣,臺東市,臺11線159.7K(中華大橋北端),臺東縣警察局,臺東分局,121.176338,22.777752,,
臺東縣,臺東市,臺11線157.4Ｋ(富崗派出所前),臺東縣警察局,臺東分局,121.193969,22.794357,,
臺東縣,成功鎮,臺11線127.65K(小馬段),臺東縣警察局,成功分局,121.315648,22.996929,,
臺東縣,成功鎮,臺11線123.75K(都歷段),臺東縣警察局,成功分局,121.332156,23.027685,,
臺東縣,成功鎮,臺11線112.4K(芝田段),臺東縣警察局,成功分局,121.383512,23.108957,,
臺東縣,成功鎮,臺11線106.9K(美山段),臺東縣警察局,成功分局,121.398588,23.153486,,
臺東縣,關山鎮,臺9線339.8K(瑞豐派出所前),臺東縣警察局,關山分局,121.140933,22.987512,,
臺東縣,關山鎮,臺9線331.55K（米國學校）,臺東縣警察局,關山分局,121.169291,23.061592,,
臺東縣,卑南鄉,臺9乙線7.4k(利嘉段),臺東縣警察局,臺東分局,121.063999,22.775743,,
臺東縣,卑南鄉,臺9線366.5k(美農段),臺東縣警察局,臺東分局,121.090612,22.821239,,
臺東縣,卑南鄉,初鹿村忠孝路與文泰路口,臺東縣警察局,臺東分局,121.092276,22.857074,,
臺東縣,卑南鄉,臺9線368.1K(賓朗段),臺東縣警察局,臺東分局,121.092321,22.807805,,
臺東縣,卑南鄉,臺11線153.4k(富山段),臺東縣警察局,臺東分局,121.188904,22.821447,,
臺東縣,鹿野鄉,臺9線356.7K(鹿鳴橋北端),臺東縣警察局,關山分局,121.095136,22.893962,,
臺東縣,鹿野鄉,臺9線356.1K(四維段),臺東縣警察局,關山分局,121.096494,22.898181,,
臺東縣,鹿野鄉,臺9線346.7K(永隆段),臺東縣警察局,關山分局,121.143079,22.938002,,
臺東縣,池上鄉,臺9線325K新興段,臺東縣警察局,關山分局,121.202832,23.107686,,
臺東縣,東河鄉,臺11線141.7K(興隆國小前),臺東縣警察局,成功分局,121.247803,22.895144,,
臺東縣,東河鄉,臺11線137.4K(隆昌段),臺東縣警察局,成功分局,121.268303,22.926652,,
臺東縣,東河鄉,臺11線132.1K(東河段),臺東縣警察局,成功分局,121.296277,22.962713,,
臺東縣,長濱鄉,臺30線27.7K(玉長公路),臺東縣警察局,成功分局,121.374014,23.266609,,
臺東縣,長濱鄉,臺11線97.9K(膽曼段),臺東縣警察局,成功分局,121.413387,23.223275,,
臺東縣,長濱鄉,臺11線83.7K（城子埔段）,臺東縣警察局,成功分局,121.464151,23.333346,,
臺東縣,長濱鄉,臺11線78.3K(大俱來),臺東縣警察局,成功分局,121.471837,23.379983,,
臺東縣,太麻里鄉,臺9線406.8K(新香蘭段),臺東縣警察局,大武分局,120.992979,22.580520,,
臺東縣,太麻里鄉,臺9線401.1K(北里段),臺東縣警察局,大武分局,121.012537,22.626123,,
臺東縣,太麻里鄉,臺9線396.7K(華源段),臺東縣警察局,大武分局,121.028694,22.662472,,
臺東縣,太麻里鄉,臺9線395.2K(三和國小前),臺東縣警察局,大武分局,121.037972,22.672578,,
臺東縣,太麻里鄉,臺9線393.9K(美和派出所前),臺東縣警察局,大武分局,121.043503,22.684385,,
臺東縣,大武鄉,臺9線440K(南興地磅站前),臺東縣警察局,大武分局,120.891871,22.323227,,
臺東縣,大武鄉,臺9線434.67K(大武國中前),臺東縣警察局,大武分局,120.907686,22.364501,,
臺東縣,達仁鄉,臺9線443.4K(達仁段),臺東縣警察局,大武分局,120.885115,22.294631,,
花蓮縣,花蓮市,府前路與北興路口,花蓮縣警察局,花蓮分局,121.464844,23.785345,南下,
花蓮縣,花蓮市,中央路豐村路口,花蓮縣警察局,花蓮分局,121.600830,24.003060,北上車道,
花蓮縣,花蓮市,尚志路18-1號前,花蓮縣警察局,花蓮分局,121.610670,23.990095,南下車道,50
花蓮縣,鳳林鎮,台九線248.9K,花蓮縣警察局,鳳林分局,121.423060,23.672220,南下車道,60
花蓮縣,鳳林鎮,公正路與信義路口,花蓮縣警察局,鳳林分局,121.451866,23.744798,北上車道,
花蓮縣,鳳林鎮,台九線223K,花蓮縣警察局,吉安分局,121.452220,23.744440,南,70
花蓮縣,鳳林鎮,台11線54.9K,花蓮縣警察局,鳳林分局,121.519775,23.561470,北上車道,40
花蓮縣,鳳林鎮,台9線262.5K,花蓮縣警察局,鳳林分局,121.569214,23.907182,南下車道,60
花蓮縣,鳳林鎮,台9線270.4K,花蓮縣警察局,鳳林分局,121.576080,23.920364,南下車道,70
花蓮縣,鳳林鎮,台9線245.6K,花蓮縣警察局,鳳林分局,121.578140,23.906555,北上車道,70
花蓮縣,鳳林鎮,台11線44.6k,花蓮縣警察局,鳳林分局,121.580200,23.981234,北上車道,60
花蓮縣,玉里鎮,興國路與自由街口,花蓮縣警察局,玉里分局,23.335498,121.319896,南下車道,
花蓮縣,玉里鎮,台30線27.2K,花蓮縣警察局,玉里分局,121.297302,23.367471,東往西向,50
花蓮縣,玉里鎮,台9線284.9K,花蓮縣警察局,玉里分局,121.311035,23.407806,南下車道,60
花蓮縣,玉里鎮,台9線315.3K,花蓮縣警察局,玉里分局,121.333008,23.339734,北上車道,60
花蓮縣,新城鄉,台九線192.5K,花蓮縣警察局,新城分局,121.606390,24.058060,北上車道,70
花蓮縣,新城鄉,台九線181K,花蓮縣警察局,新城分局,121.621110,24.106940,北上車道,60
花蓮縣,新城鄉,台九線186.2K,花蓮縣警察局,新城分局,121.635830,24.115000,南下車道,70
花蓮縣,新城鄉,台九線179.9K,花蓮縣警察局,新城分局,121.651940,24.162780,南下車道,60
花蓮縣,新城鄉,台九線158.5K,花蓮縣警察局,新城分局,121.745830,24.313060,北上車道,50
花蓮縣,新城鄉,台九線157.1K,花蓮縣警察局,新城分局,121.752240,24.298421,南下車道,50
花蓮縣,吉安鄉,台11丙線4.4K,花蓮縣警察局,吉安分局,121.437378,23.780318,南下車道,70
花蓮縣,吉安鄉,台11丙線14.2K,花蓮縣警察局,吉安分局,121.467590,23.868257,北上車道,70
花蓮縣,吉安鄉,台11線11K,花蓮縣警察局,吉安分局,121.486816,23.780318,北上車道,60
花蓮縣,吉安鄉,台9線223K,花蓮縣警察局,吉安分局,121.543121,23.890860,南下車道,70
花蓮縣,吉安鄉,臺9丙線7K,花蓮縣警察局,吉安分局,121.553507,23.958568,南下車道,60
花蓮縣,吉安鄉,台9線227K,花蓮縣警察局,吉安分局,121.573334,23.898708,北上車道,70
花蓮縣,吉安鄉,中央路建國路口,花蓮縣警察局,吉安分局,121.587780,23.986940,南下車道,
澎湖縣,馬公市,縣道203線5.3K,澎湖縣政府警察局,馬公分局,119.568181,23.567697,北向南,50
澎湖縣,馬公市,縣道201線6.6K,澎湖縣政府警察局,馬公分局,119.573157,23.522303,東向西,50
澎湖縣,馬公市,縣道201線5.6K,澎湖縣政府警察局,馬公分局,119.578457,23.519647,東向西,50
澎湖縣,馬公市,縣道201線1.7K,澎湖縣政府警察局,馬公分局,119.600794,23.534658,南向北,70
澎湖縣,馬公市,縣道204線2.7K,澎湖縣政府警察局,馬公分局,119.601610,23.557850,西向東,70
澎湖縣,馬公市,縣道202線0.3K,澎湖縣政府警察局,馬公分局,119.603090,23.568865,東向西,50
澎湖縣,馬公市,縣道204線4K,澎湖縣政府警察局,馬公分局,119.614892,23.549904,東向西,50
澎湖縣,馬公市,縣道204線4.6K,澎湖縣政府警察局,馬公分局,119.619548,23.548310,南向北,50
澎湖縣,湖西鄉,縣道203線8K,澎湖縣政府警察局,馬公分局,119.605322,23.579406,北向南,70
澎湖縣,湖西鄉,縣道202線1.7K,澎湖縣政府警察局,馬公分局,119.612703,23.570360,北向南,70
澎湖縣,湖西鄉,縣道203線6.1K,澎湖縣政府警察局,馬公分局,119.631537,23.560315,南向北,50
澎湖縣,湖西鄉,縣道204線6.7K,澎湖縣政府警察局,馬公分局,119.634826,23.560801,南向北,50
澎湖縣,湖西鄉,縣道202線5K,澎湖縣政府警察局,馬公分局,119.636908,23.581766,西向東,50
澎湖縣,湖西鄉,縣道204線7.65K,澎湖縣政府警察局,馬公分局,119.642894,23.562787,西向東,50
澎湖縣,湖西鄉,縣道202號9.9K,澎湖縣政府警察局,馬公分局,119.659563,23.584875,南向北,50
澎湖縣,湖西鄉,縣道204線10.15K,澎湖縣政府警察局,馬公分局,119.666541,23.565207,西向東,50
澎湖縣,白沙鄉,縣道203線12.3K,澎湖縣政府警察局,白沙分局,119.535971,23.635973,北向南,50
澎湖縣,白沙鄉,縣道203線19.9K,澎湖縣政府警察局,白沙分局,119.560304,23.660504,西向東,70
澎湖縣,白沙鄉,縣道203線17.8K,澎湖縣政府警察局,白沙分局,119.574766,23.667441,北向南,70
澎湖縣,白沙鄉,澎8號道瓦硐段,澎湖縣政府警察局,白沙分局,119.586568,23.654981,東向西,50
澎湖縣,白沙鄉,縣道203線14K,澎湖縣政府警察局,白沙分局,119.599335,23.649065,北向南,50
澎湖縣,白沙鄉,白沙鄉赤崁村聯外橋樑北端出口岔路,澎湖縣政府警察局,白沙分局,119.602768,23.666450,南向北,40
澎湖縣,白沙鄉,縣道203號線9.5K,澎湖縣政府警察局,白沙分局,119.613154,23.601106,北向南,50
澎湖縣,西嶼鄉,縣道203線31.6K,澎湖縣政府警察局,白沙分局,119.506488,23.585345,北向南,50
澎湖縣,西嶼鄉,縣道203線30.4K,澎湖縣政府警察局,白沙分局,119.509492,23.599385,北向南,50
澎湖縣,西嶼鄉,縣道203線二崁與大池岔路口,澎湖縣政府警察局,白沙分局,119.514256,23.614250,南向北,70
澎湖縣,西嶼鄉,縣道203線24.8K,澎湖縣政府警察局,白沙分局,119.528675,23.636740,西向東,70
基隆市,中正區,台62甲1號隧道出口(0.7K處),基隆市警察局,第二分局,121.739181,25.127600,南向北,40
基隆市,中正區,中正路信五路口,基隆市警察局,第二分局,121.745830,25.135560,南向北,50
基隆市,中正區,中正路中船路口(南口),基隆市警察局,第二分局,121.749511,25.137762,北向南,50
基隆市,中正區,台62甲線、東海街口,基隆市警察局,第二分局,121.759065,25.138787,南向北,40
基隆市,中正區,北寧路(海洋大學前),基隆市警察局,第二分局,121.777985,25.151018,南向北,50
基隆市,中正區,調和街154之3號旁,基隆市警察局,第二分局,121.796412,25.135090,北向南,50
基隆市,中正區,調和街242號對面處,基隆市警察局,第二分局,121.797780,25.133632,南向北,50
基隆市,七堵區,新台五路、福三街口(北向南),基隆市警察局,第三分局,121.685341,25.114392,北向南,50
基隆市,七堵區,新台五路、福三街口(南向北),基隆市警察局,第三分局,121.685341,25.114392,南向北,50
基隆市,七堵區,新台五線五堵橋頭(台5線19K+107),基隆市警察局,第三分局,121.685341,25.114392,南向北,60
基隆市,七堵區,大埔交流道、大同街口,基隆市警察局,第三分局,121.690519,25.112894,西向東,40
基隆市,七堵區,明德三路(長春貨櫃),基隆市警察局,第三分局,121.691110,25.078060,南向北,50
基隆市,七堵區,實踐路294巷口,基隆市警察局,第三分局,121.695398,25.087720,北向南,50
基隆市,七堵區,大華二路46號對面處,基隆市警察局,第三分局,121.696034,25.101782,東西雙向,50
基隆市,七堵區,萬瑞快速道路(台62線)3K+290(東行),基隆市警察局,第三分局,121.697590,25.121502,西向東,80
基隆市,七堵區,萬瑞快速道路(台62線)3.4K(西行),基隆市警察局,第三分局,121.697869,25.121832,東向西,80
基隆市,七堵區,工建西路、工建路口,基隆市警察局,第三分局,121.699440,25.092500,北向南,50
基隆市,七堵區,明德二路(台5線20.5K處)北向,基隆市警察局,第三分局,121.701497,25.080700,南向北,50
基隆市,七堵區,明德二路(台五線20K+422)南向,基隆市警察局,第三分局,121.701497,25.080700,北向南,50
基隆市,七堵區,明德二路2之1號前,基隆市警察局,第三分局,121.706649,25.090313,南向北,50
基隆市,七堵區,光明路106號前,基隆市警察局,第三分局,121.716191,25.097341,北向南,50
基隆市,七堵區,八堵路185巷口(北上),基隆市警察局,第三分局,121.725280,25.103060,南向北,50
基隆市,七堵區,八堵路185巷口(南下),基隆市警察局,第三分局,121.726390,25.103060,北向南,50
基隆市,七堵區,八堵路國安路口,基隆市警察局,第三分局,121.735000,25.111110,南向北,50
基隆市,七堵區,萬瑞快速道路(台62線)11K+280(西行),基隆市警察局,第三分局,121.754820,25.102713,東向西,80
基隆市,七堵區,萬瑞快速道路(台62線)11K+470(東行),基隆市警察局,第三分局,121.755578,25.102885,西向東,80
基隆市,暖暖區,過港路、寧靜街口,基隆市警察局,第三分局,121.736686,25.106227,東向西,50
基隆市,暖暖區,源遠路、暖暖街口,基隆市警察局,第三分局,121.739170,25.103060,西向東,50
基隆市,暖暖區,東勢街、暖濃橋口,基隆市警察局,第三分局,121.743319,25.087739,南向北,40
基隆市,暖暖區,東勢街與東安一號橋口,基隆市警察局,第三分局,121.743319,25.087739,南向北,40
基隆市,暖暖區,源遠路249巷口,基隆市警察局,第三分局,121.754440,25.099440,東向西,50
基隆市,暖暖區,基平隧道5K+120往基隆,基隆市警察局,第三分局,121.763932,25.066869,南向北,50
基隆市,暖暖區,基平隧道北端出口處往基隆,基隆市警察局,第三分局,121.763932,25.066869,南向北,40
基隆市,仁愛區,29號橋,基隆市警察局,第一分局,121.738890,25.128330,南向北,50
基隆市,仁愛區,南榮路509巷口,基隆市警察局,第一分局,121.740830,25.111940,南向北,50
基隆市,仁愛區,南榮路64巷口,基隆市警察局,第一分局,121.742880,25.123173,,
基隆市,仁愛區,南榮路393巷口,基隆市警察局,第一分局,121.745560,25.119170,北向南,50
基隆市,中山區,西岸高架橋南下0K+460處,基隆市警察局,第四分局,121.440000,25.070000,北向南,50
基隆市,中山區,西岸高架橋北端路口處(火車站北口),基隆市警察局,第四分局,121.440000,25.080000,南向北,50
基隆市,中山區,文化路116號前,基隆市警察局,第四分局,121.734197,25.153727,西向東,50
基隆市,中山區,中山一路57號前,基隆市警察局,第四分局,121.737362,25.131104,西向東,50
基隆市,中山區,中華路97巷口,基隆市警察局,第四分局,121.738013,25.147667,西向東,50
基隆市,安樂區,基金三路下坡路段,基隆市警察局,第四分局,121.693737,25.154260,西向東,50
基隆市,安樂區,基金三路、武隆街口,基隆市警察局,第四分局,121.693737,25.154260,西向東,50
基隆市,安樂區,基金三路、武聖街口,基隆市警察局,第四分局,121.695830,25.156390,東向西,50
基隆市,安樂區,基金三路、武訓街口(西向),基隆市警察局,第四分局,121.696390,25.156390,東向西,50
基隆市,安樂區,基金三路、武訓街口(東向),基隆市警察局,第四分局,121.696940,25.155560,西向東,50
基隆市,安樂區,基金二路、萬瑞快速道路(台62線)口,基隆市警察局,第四分局,121.700581,25.146944,西向東,50
基隆市,安樂區,萬瑞快速道路(台62線)、基金二路一巷口,基隆市警察局,第四分局,121.701766,25.137759,東向西,40
基隆市,安樂區,北濱公路(台2線)、武聖街144巷口,基隆市警察局,第四分局,121.702445,25.147414,西向東,50
基隆市,安樂區,基金一路135巷口,基隆市警察局,第四分局,121.709720,25.141940,西向東,50
基隆市,安樂區,基金一路208巷口,基隆市警察局,第四分局,121.710280,25.142780,東向西,50
基隆市,安樂區,基金一路、5B匝道口,基隆市警察局,第四分局,121.716110,25.140280,東向西,50
基隆市,安樂區,麥金路、樂利三街口,基隆市警察局,第四分局,121.719720,25.128330,東向西,50
基隆市,安樂區,麥金路749號前,基隆市警察局,第四分局,121.720855,25.134191,西向東,50
基隆市,安樂區,麥金路222號(長庚醫院)前,基隆市警察局,第四分局,121.721940,25.121110,東向西,50
基隆市,安樂區,安樂路二段127號(中華電信)前,基隆市警察局,第四分局,121.725235,25.122469,南向北,50
基隆市,安樂區,麥金路、樂利二街口,基隆市警察局,第四分局,121.726390,25.115830,東向西,50
基隆市,安樂區,安樂路一段、崇德街口,基隆市警察局,第四分局,121.733022,25.128411,南向北,50
基隆市,信義區,信二、義一路口,基隆市警察局,第二分局,121.745000,25.131940,北向南,50
基隆市,信義區,信一路義三路口,基隆市警察局,第二分局,121.746390,25.130000,東向西,50
基隆市,信義區,仁一、月眉路口,基隆市警察局,第二分局,121.756114,25.128010,西向東,50
基隆市,信義區,培德路2巷口,基隆市警察局,第二分局,121.769170,25.128060,東向西,50
基隆市,信義區,台62甲線孝東匝道口,基隆市警察局,第二分局,121.775750,25.130327,南向北,40
基隆市,信義區,深澳坑路118號前,基隆市警察局,第二分局,121.777220,25.130000,西向東,
基隆市,信義區,深澳坑路118號前,基隆市警察局,第二分局,121.777220,25.130000,西向東,50
基隆市,信義區,深澳坑路240號旁,基隆市警察局,第二分局,121.788940,25.090574,西向東,50
新竹市,東區,柴橋路255巷口,新竹市警察局,第三分局,120.961734,24.762645,南向北,40
新竹市,東區,食品路、西大路口,新竹市警察局,第三分局,120.972679,24.794996,北向南,50
新竹市,東區,東大高架民族路上方,新竹市警察局,第二分局,120.973693,24.805871,西向東,50
新竹市,東區,公道五路四段127號前,新竹市警察局,第一分局,120.975636,24.825012,西向東,40
新竹市,東區,寶山路200巷口,新竹市警察局,第三分局,120.976872,24.790437,東向西,50
新竹市,東區,東大高架花園街上方,新竹市警察局,第二分局,120.976889,24.803887,東向西,50
新竹市,東區,經國路、鐵道路二段口,新竹市警察局,第一分局,120.981133,24.814763,北向南,50
新竹市,東區,寶山路317巷口(高峰植物園),新竹市警察局,第三分局,120.982394,24.788257,東向西,50
新竹市,東區,自由路、民族路口,新竹市警察局,第二分局,120.982636,24.810917,東向西,50
新竹市,東區,光復路二段、學府路口,新竹市警察局,第二分局,120.986768,24.801134,西向東,50
新竹市,東區,中華路一段2巷137號,新竹市警察局,第二分局,120.986894,24.822032,西向東,40
新竹市,東區,中華路一段284巷口,新竹市警察局,第一分局,120.989275,24.812634,西向東,50
新竹市,東區,光復路二段、忠孝路口,新竹市警察局,第二分局,120.989832,24.800166,東向西,50
新竹市,東區,溪埔路與經國路一段156巷50弄口,新竹市警察局,第二分局,120.990605,24.817444,北向南,50
新竹市,東區,光復路二段、建中路口,新竹市警察局,第二分局,120.993313,24.799017,西向東,50
新竹市,東區,中華路一段、經國路一段口,新竹市警察局,第二分局,120.993420,24.815729,南向北,50
新竹市,東區,光復路二段、建功路口,新竹市警察局,第二分局,120.998013,24.795917,東向西,50
新竹市,東區,園區三路121號台積電旁(西北向東南-限速50公里),保二總隊,保二第三大隊,120.998191,24.774435,,
新竹市,東區,公道五路與慈雲路口,新竹市警察局,第二分局,121.013230,24.795370,南向北,50
新竹市,東區,關新路20號前,新竹市警察局,第二分局,121.018375,24.784631,北向南,30
新竹市,北區,西濱公路、海埔路口,新竹市警察局,第一分局,120.924501,24.818997,北向南,50
新竹市,北區,西濱公路、延平路三段口,新竹市警察局,第一分局,120.927341,24.827642,北向南,50
新竹市,北區,台68線榮濱路匝道口,新竹市警察局,第一分局,120.934101,24.845256,東向西,40
新竹市,北區,西濱公路、東大路四段口(北上),新竹市警察局,第一分局,120.934122,24.842299,南向北,50
新竹市,北區,西濱公路、東大路四段口(南下),新竹市警察局,第一分局,120.934198,24.842538,北向南,50
新竹市,北區,舊港1-1號前(舊港大橋),新竹市警察局,第一分局,120.942742,24.844084,北向南,50
新竹市,北區,天府路一段、東大路三段291巷口,新竹市警察局,第一分局,120.944315,24.833956,西向東,50
新竹市,北區,東大路三段77巷口(機場彎道往市區),新竹市警察局,第一分局,120.951760,24.832505,西向東,50
新竹市,北區,東大路三段110巷口(機場彎道往南寮),新竹市警察局,第一分局,120.954779,24.829601,東向西,50
新竹市,北區,經國路二段、延平路一段口,新竹市警察局,第一分局,120.955551,24.805037,北向南,50
新竹市,北區,經國路二段、磐石路口,新竹市警察局,第一分局,120.958047,24.807744,南向北,50
新竹市,北區,公道五路四段、防汛道路(往南寮),新竹市警察局,第一分局,120.958539,24.830075,東向西,50
新竹市,北區,武陵路61巷口(北向南-速限50),新竹市警察局,第一分局,120.965238,24.817877,,
新竹市,北區,台68線東大路匝道口,新竹市警察局,第一分局,120.965341,24.817825,北向南,40
新竹市,北區,經國路二段、水田街口,新竹市警察局,第一分局,120.965761,24.812772,南向北,50
新竹市,北區,武陵路196巷口(武陵匝道口、荷蘭村),新竹市警察局,第一分局,120.968094,24.820688,北向南,50
新竹市,北區,湳雅街367號,新竹市警察局,第一分局,120.977961,24.823581,北向南,50
新竹市,北區,公道五路三段、經國路一段口,新竹市警察局,第一分局,120.985527,24.814775,東向西,50
新竹市,香山區,中華路六段、五福路一段口,新竹市警察局,第三分局,120.908282,24.742623,南向北,60
新竹市,香山區,中華路五段832號前(香山火車),新竹市警察局,第三分局,120.913248,24.762859,北向南,60
新竹市,香山區,中華路六段、南隘路口,新竹市警察局,第三分局,120.915434,24.731753,北向南,60
新竹市,香山區,中華路五段644巷口,新竹市警察局,第三分局,120.915769,24.767655,南向北,60
新竹市,香山區,中華路五段320巷口,新竹市警察局,第三分局,120.919237,24.781081,南向北,60
新竹市,香山區,西濱公路、宮口街口,新竹市警察局,第三分局,120.919397,24.793509,南向北,80
新竹市,香山區,中華路五段208巷口,新竹市警察局,第三分局,120.920187,24.784408,北向南,60
新竹市,香山區,西濱公路港南國小前,新竹市警察局,第三分局,120.922573,24.813971,南向北,50
新竹市,香山區,中華路五段74號前(南下),新竹市警察局,第三分局,120.926757,24.787479,北向南,60
新竹市,香山區,南隘路南隘國小前,新竹市警察局,第三分局,120.927870,24.725458,南向北,50
新竹市,香山區,中華路四段、牛埔南路口,新竹市警察局,第三分局,120.929718,24.788621,南向北,60
新竹市,香山區,中華路四段、東華路口,新竹市警察局,第三分局,120.945526,24.793619,南向北,60
新竹市,香山區,中華路四段224巷口,新竹市警察局,第三分局,120.948946,24.795299,南向北,60
新竹市,香山區,景觀大道201號前(觀景台),新竹市警察局,第三分局,120.949832,24.786226,南向北,70
新竹市,香山區,中華路四段、經國路三段口,新竹市警察局,第三分局,120.952455,24.796485,南向北,50
新竹市,香山區,景觀大道、東香路二段口,新竹市警察局,第三分局,120.952954,24.773161,北向南,70
嘉義市,東區,文化路６９４巷口,嘉義市政府警察局,第二分局,120.442524,23.497126,北向南,50
嘉義市,東區,忠孝路(台1線263公里處),嘉義市政府警察局,第二分局,120.444349,23.512120,北向南,50
嘉義市,東區,忠孝路與義教街口,嘉義市政府警察局,第二分局,120.451500,23.498265,南向北,50
嘉義市,東區,彌陀路１６２巷口,嘉義市政府警察局,第二分局,120.466440,23.468078,南向北,50
嘉義市,東區,嘉義市彌陀路與學府路口,嘉義市政府警察局,第二分局,120.469649,23.464439,北向南,50
嘉義市,東區,林森東路612巷口斜對面,嘉義市政府警察局,第二分局,120.473642,23.491885,東向西,50
嘉義市,東區,大雅路一段470號前,嘉義市政府警察局,第二分局,120.473757,23.491804,西向東,50
嘉義市,西區,北港路與竹仔腳路口,嘉義市政府警察局,第一分局,120.397890,23.491565,西向東,501060216
嘉義市,西區,高鐵大道925號旁,嘉義市政府警察局,第一分局,120.403420,23.486872,西向東,70
嘉義市,西區,北港路1158號前,嘉義市政府警察局,第一分局,120.403596,23.490176,西向東,50
嘉義市,西區,博愛路與自強街口,嘉義市政府警察局,第一分局,120.425061,23.464802,南北雙向,50
嘉義市,西區,北港路與中興路口,嘉義市政府警察局,第一分局,120.430069,23.479925,東向西,50
嘉義市,西區,嘉義市垂楊大橋,嘉義市政府警察局,第一分局,120.437919,23.472663,西向東(闖紅燈),
嘉義市,西區,博愛路與中興路口,嘉義市政府警察局,第一分局,120.438645,23.480523,南向北,50
嘉義市,西區,新民路416巷口,嘉義市政府警察局,第一分局,120.440559,23.459939,南向北,50
嘉義市,西區,湖子內路１００號前,嘉義市政府警察局,第一分局,120.442254,23.453062,南向北,50
嘉義市,西區,興業東路與國華街口,嘉義市政府警察局,第一分局,120.449134,23.468700,西向東,50
臺北市,松山區,復興北路興安街口,臺北市政府警察局,松山分局,121.544170,25.056110,,
臺北市,松山區,復興北路車行地下道南出口處,臺北市政府警察局,松山分局,121.544288,25.066498,往南,40
臺北市,松山區,敦化北路八德路口,臺北市政府警察局,松山分局,121.548890,25.047780,,
臺北市,松山區,民權東路4段 民權公園前,臺北市政府警察局,松山分局,121.557485,25.062050,東西雙向,50
臺北市,松山區,民權東路新中街口附近,臺北市政府警察局,松山分局,121.560000,25.062220,,
臺北市,松山區,民權東路三民街,臺北市政府警察局,松山分局,121.563060,25.063060,,
臺北市,松山區,健康路300號,臺北市政府警察局,松山分局,121.565601,25.054245,往東,50
臺北市,松山區,塔悠路近撫遠街261巷口,臺北市政府警察局,松山分局,121.568443,25.062174,往南,50
臺北市,松山區,塔悠路延壽街口,臺北市政府警察局,松山分局,121.569170,25.057780,往北,50
臺北市,信義區,光復南路456巷,臺北市政府警察局,信義分局,121.557500,25.035280,,
臺北市,信義區,基隆路與松壽路口,臺北市政府警察局,信義分局,121.561297,25.035897,,
臺北市,信義區,忠孝東路四段逸仙路口附近,臺北市政府警察局,信義分局,121.561670,25.041390,東西雙向,50
臺北市,信義區,市民大道五段50號前,臺北市政府警察局,信義分局,121.562780,25.046940,往東,50
臺北市,信義區,松仁路松壽路口,臺北市政府警察局,信義分局,121.568060,25.036110,,
臺北市,信義區,信義路松仁路口,臺北市政府警察局,信義分局,121.568330,25.033330,,
臺北市,信義區,忠孝東路5段210號,臺北市政府警察局,信義分局,121.570287,25.040960,往東,50
臺北市,信義區,永吉路松信路口,臺北市政府警察局,信義分局,121.570560,25.046110,,
臺北市,信義區,永吉路松信路口,臺北市政府警察局,信義分局,121.572100,25.045622,,
臺北市,信義區,信義快速道路象山隧道往北出口處,臺北市政府警察局,信義分局,121.574440,25.033330,,
臺北市,大安區,和平東路一段國立師範大學前(西向東),臺北市政府警察局,大安分局,121.532220,25.057780,往東,50
臺北市,大安區,基隆路 長興街,臺北市政府警察局,大安分局,121.533330,25.017220,往北,50
臺北市,大安區,新生南路三段58號台大側門,臺北市政府警察局,大安分局,121.533330,25.017220,往北,50
臺北市,大安區,新生南路金華街(北向南),臺北市政府警察局,大安分局,121.533330,25.030830,往南,50
臺北市,大安區,忠孝東路3段46號前(近建國南路口)(西向東),臺北市政府警察局,大安分局,121.536940,25.041670,,
臺北市,大安區,建國高架道和平東路上方(北向南),臺北市政府警察局,大安分局,121.537780,25.025280,往南,70
臺北市,大安區,建國南路2段179號往北,臺北市政府警察局,大安分局,121.537864,25.027892,往北,50
臺北市,大安區,市民大道三段214號前(西向東),臺北市政府警察局,大安分局,121.540560,25.044170,往東,40
臺北市,大安區,辛亥路復興南路(西向東),臺北市政府警察局,大安分局,121.543330,25.021670,,
臺北市,大安區,敦化南路和平東路(北向南),臺北市政府警察局,大安分局,121.548610,25.024440,,
臺北市,大安區,基隆高架道下敦化南路段(南向北),臺北市政府警察局,大安分局,121.548890,25.021670,往北,60
臺北市,大安區,辛亥路三段157巷(下北二高)(東向西),臺北市政府警察局,大安分局,121.549170,25.017220,往西,50
臺北市,中山區,中山北路民生東路(北向南),臺北市政府警察局,中山分局,121.522500,25.057780,,
臺北市,中山區,中山北路長春路口(南向北),臺北市政府警察局,中山分局,121.522780,25.055280,,
臺北市,中山區,新生北路高架道民族東路入口(往南),臺北市政府警察局,中山分局,121.527802,25.068349,,
臺北市,中山區,新生北路高架道民族東路入口(往南),臺北市政府警察局,中山分局,121.528060,25.068610,往南,70
臺北市,中山區,松江路農安街(南向北),臺北市政府警察局,中山分局,121.533060,25.065000,,
臺北市,中山區,松江路民族東路(北向南),臺北市政府警察局,中山分局,121.533060,25.067780,,
臺北市,中山區,松江路民族東路(北向南),臺北市政府警察局,中山分局,121.533150,25.068258,,
臺北市,中山區,建國高架道長春路入口(北向南),臺北市政府警察局,中山分局,121.536670,25.055280,往南,70
臺北市,中山區,建國北路長安東路口(南向北),臺北市政府警察局,中山分局,121.536940,25.048890,,
臺北市,中山區,建國北路民權東路(南向北),臺北市政府警察局,中山分局,121.537220,25.062500,,
臺北市,中山區,明水路 國防語言學校前,臺北市政府警察局,中山分局,121.540925,25.077658,東西雙向,50
臺北市,中山區,明水路北安國中前往東方向,臺北市政府警察局,中山分局,121.541940,25.077780,,
臺北市,中山區,民生東路三段遼寧街口(台北大學前)(西向東),臺北市政府警察局,中山分局,121.542500,25.057780,,
臺北市,中山區,民生東路復興北路(北向南),臺北市政府警察局,中山分局,121.544170,25.057780,,
臺北市,中山區,復興北路(車行地下道北出口處),臺北市政府警察局,中山分局,121.544361,25.072067,往北,40
臺北市,中山區,北安路 海軍司令部前,臺北市政府警察局,中山分局,121.548816,25.094869,往西,50
臺北市,中山區,樂群一路(基湖路口西往東天橋下(金泰公園)),臺北市政府警察局,中山分局,121.564965,25.076185,往東,50
臺北市,中正區,中華路貴陽路口(南向北),臺北市政府警察局,中正一局,121.507500,25.038890,,
臺北市,中正區,中華路1段秀山街口(南向北),臺北市政府警察局,中正一局,121.508610,25.043610,往北,50
臺北市,中正區,重慶南路3段27巷口(往北),臺北市政府警察局,中正二局,121.515686,25.028524,南北雙向,50
臺北市,中正區,中山南路愛國西路口(北向南),臺北市政府警察局,中正一局,121.516390,25.034440,,
臺北市,中正區,中山南路愛國西路口(北向南),臺北市政府警察局,中正一局,121.516429,25.035287,,
臺北市,中正區,市民大道高架 京站百貨前,臺北市政府警察局,中正一局,121.517098,25.048585,往東,80
臺北市,中正區,中山南路濟南路(南向北),臺北市政府警察局,中正一局,121.519170,25.043610,,
臺北市,中正區,忠孝東路林森南路口(東向西),臺北市政府警察局,中正一局,121.523330,25.045280,,
臺北市,中正區,水源快速道路 師大路入口上方,臺北市政府警察局,中正第二分局,121.524808,25.016842,往南,60
臺北市,中正區,金山南路銅山街口(南向北),臺北市政府警察局,中正一局,121.528890,25.039720,,
臺北市,中正區,仁愛路臨沂街口(東向西),臺北市政府警察局,中正一局,121.529440,25.038060,往西,50
臺北市,中正區,水源快道路往南(景福匝道口),臺北市政府警察局,中正第二分局,121.535349,24.998873,往南,60
臺北市,中正區,忠孝東路3段近建國南路口,臺北市政府警察局,中正一局,121.536877,25.041674,往東,50
臺北市,大同區,環河北路近敦煌路(北向南),臺北市政府警察局,大同分局,121.508890,25.076940,往南,60
臺北市,大同區,承德路3段 敦煌路,臺北市政府警察局,大同分局,121.520102,25.075142,南北雙向,50
臺北市,大同區,承德路4段 通河街,臺北市政府警察局,大同分局,122.522104,25.080308,南北雙向,50
臺北市,萬華區,萬板大橋台北端引道(往台北市),臺北市政府警察局,萬華分局,121.487780,25.030000,往市區,50
臺北市,萬華區,環河南路快速道路(近環河南路二段250巷口)(南向北),臺北市政府警察局,萬華分局,121.489720,25.034440,,
臺北市,萬華區,西園路光復橋頭(南向北),臺北市政府警察局,萬華分局,121.490280,25.023610,,
臺北市,萬華區,環河南路1段77號對面(北向南),臺北市政府警察局,萬華分局,121.490560,25.025560,往南,50
臺北市,萬華區,艋舺大道雙園街(西向東),臺北市政府警察局,萬華分局,121.493610,25.030830,,
臺北市,萬華區,萬大路華中橋頭(南北雙向),臺北市政府警察局,萬華分局,121.495560,25.011940,南北雙向,50
臺北市,萬華區,西園路二段140巷(南向北),臺北市政府警察局,萬華分局,121.495560,25.029170,,
臺北市,萬華區,艋舺大道297號台糖公司前(東向西),臺北市政府警察局,萬華分局,121.496670,25.032780,往西,50
臺北市,萬華區,和平西路3段199號前(西向東),臺北市政府警察局,萬華分局,121.496940,25.035560,往東,50
臺北市,萬華區,萬大路186巷(雙和街)(北向南),臺北市政府警察局,萬華分局,121.500280,25.028060,,
臺北市,萬華區,環河南路快速道路中興橋匝道(北向南),臺北市政府警察局,萬華分局,121.501110,25.044440,往南,60
臺北市,萬華區,艋舺大道120巷(東向西),臺北市政府警察局,萬華分局,121.502216,25.033321,,
臺北市,萬華區,中華路1段往南(萬華406號廣場前),臺北市政府警察局,萬華分局,121.507429,25.039843,往南,50
臺北市,萬華區,水源快速道路青年公園前平面道(東向西),臺北市政府警察局,萬華分局,121.508060,25.022780,往西,60
臺北市,文山區,水源快速道路下景美匝道口(水南)(北向南),臺北市政府警察局,文山二局,121.535252,25.000191,,
臺北市,文山區,水源快速道路景美入口(下層)水北(南向北),臺北市政府警察局,文山二局,121.535301,25.000093,,
臺北市,文山區,水源快速道路下景美匝道口(水南)(北向南),臺北市政府警察局,文山二局,121.535560,24.995560,,
臺北市,文山區,羅斯福路5段240號(往南),臺北市政府警察局,文山二局,121.539096,25.001425,往南,50
臺北市,文山區,羅斯福路6段469巷(往北),臺北市政府警察局,文山二局,121.539700,24.989848,,
臺北市,文山區,羅斯福路六段469巷前(南向北),臺北市政府警察局,文山二局,121.540560,24.991940,,
臺北市,文山區,羅斯福路6段226號前,臺北市政府警察局,文山二局,121.540617,24.992655,,
臺北市,文山區,羅斯福路6段226號(往南),臺北市政府警察局,文山二局,121.540622,24.992654,往南,50
臺北市,文山區,辛亥路6段 懷恩隧道出口,臺北市政府警察局,文山一局,121.551487,22.991647,往南,50
臺北市,文山區,辛亥路四段辛亥隧道出口(北向南),臺北市政府警察局,文山二局,121.556670,25.010830,,
臺北市,文山區,辛亥路4段辛亥隧道出口(往南),臺北市政府警察局,文山二局,121.557304,25.009742,往南,50
臺北市,文山區,信義快速道路(北往南萬芳交流道旁),臺北市政府警察局,文山一局,121.578279,25.001937,,
臺北市,文山區,信義快速道路(北往南文山隧道出口處),臺北市政府警察局,文山一局,121.579148,25.018515,往南,70
臺北市,文山區,新光路二段(西向東),臺北市政府警察局,文山一局,121.579729,24.998396,,
臺北市,文山區,木柵路5段64號前(西向東),臺北市政府警察局,文山第一分局,121.589216,25.001392,,
臺北市,文山區,新光路二段(東向西),臺北市政府警察局,文山一局,121.589999,24.998477,,
臺北市,文山區,木柵路五段(東向西),臺北市政府警察局,文山一局,121.593434,24.998900,,
臺北市,文山區,木柵路五段(西向東) 100之3號,臺北市政府警察局,文山一局,121.593434,24.998900,往東,50
臺北市,南港區,忠孝東路六段39號前(台電前)(東向西),臺北市政府警察局,南港分局,121.584170,25.047780,,
臺北市,南港區,市民大道七段與忠孝東路六段159巷口,臺北市政府警察局,南港分局,121.586088,25.050062,往東,50
臺北市,南港區,市民大道 500號,臺北市政府警察局,南港分局,121.586216,25.053934,往東,30
臺北市,南港區,忠孝東路6段188巷,臺北市政府警察局,南港分局,121.586568,25.048629,,
臺北市,南港區,忠孝東路六段159巷口(東向西),臺北市政府警察局,南港分局,121.586670,25.048610,,
臺北市,南港區,忠孝東路七段188巷(西向東),臺北市政府警察局,南港分局,121.587220,25.048610,,
臺北市,南港區,市民大道7段 近坤陽街口,臺北市政府警察局,南港分局,121.594069,25.051335,往西,50
臺北市,南港區,市民大道八段與東南街口,臺北市政府警察局,南港分局,121.612220,25.054110,,
臺北市,南港區,市民大道八段與東南街口(東往西),臺北市政府警察局,南港分局,121.612220,25.054110,往西,30
臺北市,南港區,市民大道八段與東南街口(西往東),臺北市政府警察局,南港分局,121.612542,25.053976,,
臺北市,南港區,忠孝東路七段511號,臺北市政府警察局,南港分局,121.613060,25.053060,往東,50
臺北市,南港區,忠孝東路七段527巷(東向西),臺北市政府警察局,南港分局,121.613610,25.053060,,
臺北市,南港區,三重路19-5號前(北向南),臺北市政府警察局,南港分局,121.614170,25.057500,往南,50
臺北市,內湖區,內湖路1段324號,臺北市政府警察局,內湖分局,121.569976,25.081729,往東,50
臺北市,內湖區,堤頂大道1.9K(往南),臺北市政府警察局,內湖分局,121.572780,25.065000,,
臺北市,內湖區,南京東路6段新明路426巷,臺北市政府警察局,內湖分局,121.579105,25.055737,,
臺北市,內湖區,瑞光路199號前(南向北),臺北市政府警察局,內湖分局,121.579170,25.073890,,
臺北市,內湖區,行善路233號,臺北市政府警察局,內湖分局,121.582959,25.060823,往東,50
臺北市,內湖區,環東大道(新明路126巷口上方)(東向西),臺北市政府警察局,內湖分局,121.586940,25.059440,往西,80
臺北市,內湖區,民權東路六段136巷(東向西),臺北市政府警察局,內湖分局,121.587780,25.068610,,
臺北市,內湖區,成功路2段373號,臺北市政府警察局,內湖分局,121.589996,25.074546,往北,50
臺北市,內湖區,成功路二段250巷口(往內湖方向),臺北市政府警察局,內湖分局,121.590560,25.065830,,
臺北市,內湖區,民權東路六段210巷(民權隧道前)(西向東),臺北市政府警察局,內湖分局,121.597500,25.067500,東西雙向,50
臺北市,內湖區,金湖路200號前,臺北市政府警察局,內湖分局,121.600277,25.077788,往北,50
臺北市,內湖區,成功路5段152巷口,臺北市政府警察局,內湖分局,121.604164,25.083157,往東,50
臺北市,內湖區,民權東路六段423巷口(東向西),臺北市政府警察局,內湖分局,121.604170,25.071110,往西,50
臺北市,士林區,環河北路3段(葫蘆國小),臺北市政府警察局,士林分局,121.506700,25.083939,往北,50
臺北市,士林區,承德路四段百齡國中前(南向北),臺北市政府警察局,士林分局,121.523060,25.086670,往北,50
臺北市,士林區,仰德大道四段75號前(下山方向),臺北市政府警察局,士林分局,121.546940,25.130830,下山,40
臺北市,士林區,仰德大道2段115巷口,臺北市政府警察局,士林分局,121.550830,25.113890,下山,40
臺北市,北投區,學園路 台北藝術大學門口,臺北市政府警察局,北投分局,121.465874,25.130179,下山方向,30
臺北市,北投區,大度路往台北方向,臺北市政府警察局,北投分局,121.477760,25.122428,往南,70
臺北市,北投區,大度路往淡水方向,臺北市政府警察局,北投分局,121.480319,25.122408,往北,70
臺北市,北投區,大業路412號前,臺北市政府警察局,北投分局,121.496839,25.130341,往北,60
臺北市,北投區,洲美快速道路(北向避車彎處),臺北市政府警察局,北投分局,121.498996,25.106007,往北,80
臺北市,北投區,洲美快速道路(南向避車彎處),臺北市政府警察局,北投分局,121.499112,25.106075,往南,80
臺北市,北投區,立賢路101號,臺北市政府警察局,北投分局,121.502572,25.114443,往北,50
臺北市,北投區,承德路6段,臺北市政府警察局,北投分局,121.511861,25.104882,往南,60
臺北市,北投區,承德路6段,臺北市政府警察局,北投分局,121.512110,25.103973,往北,60
臺北市,北投區,陽金公路53號燈桿後方竹子湖路2-2號對面,臺北市政府警察局,北投分局,121.540280,25.168060,往市區,40
高雄市,鹽埕區,公園二路與五福三路口,高雄市政府警察局,鹽埕分局,120.289232,22.620372,南向北,40
高雄市,鼓山區,鼓山三路、青峰街,高雄市政府警察局,鼓山分局,120.275779,22.659278,北向南,50
高雄市,鼓山區,馬卡道路（明誠路-美術館路間）,高雄市政府警察局,鼓山分局,120.282009,22.654814,南向北,50
高雄市,鼓山區,中華一路890號,高雄市政府警察局,鼓山分局,120.292371,22.661493,北向南,60
高雄市,鼓山區,高雄市鼓山區中華一路403號,高雄市政府警察局,鼓山分局,120.292484,22.657661,南向北,60
高雄市,鼓山區,大順一路與龍德路口,高雄市政府警察局,鼓山分局,120.299694,22.655299,東向西,50
高雄市,鼓山區,明誠三路與南屏路口(西向東),高雄市政府警察局,鼓山分局,120.299725,22.661059,西向東,50
高雄市,鼓山區,明誠三路與南屏路口(東向西),高雄市政府警察局,鼓山分局,120.300397,22.661275,東向西,50
高雄市,左營區,新莊仔路與自由二路,高雄市政府警察局,左營分局,120.291652,22.687736,西向東,50
高雄市,左營區,翠華路1401號前,高雄市政府警察局,左營分局,120.294005,22.678267,北向南,60
高雄市,左營區,華夏路337巷口,高雄市政府警察局,左營分局,120.297654,22.671511,南向北,50
高雄市,左營區,翠華路1686之1號前,高雄市政府警察局,左營分局,120.302846,22.686559,南向北,60
高雄市,左營區,博愛三、文自路口,高雄市政府警察局,左營分局,120.304500,22.672869,北向南,60
高雄市,左營區,博愛、崇德路口,高雄市政府警察局,左營分局,120.305168,22.674464,南向北,50
高雄市,左營區,華夏路與新莊仔路,高雄市政府警察局,左營分局,120.305980,22.681823,南向北,60
高雄市,左營區,大中高架道路華夏匝道口,高雄市政府警察局,左營分局,120.306210,22.684857,西向東,60
高雄市,左營區,大中高架道路文川匝道口,高雄市政府警察局,左營分局,120.307582,22.683454,東向西,60
高雄市,左營區,高鐵路與曾子路,高雄市政府警察局,左營分局,120.310064,22.688069,北向南,50
高雄市,左營區,大中、自由路口,高雄市政府警察局,左營分局,120.314035,22.679234,東向西,50
高雄市,左營區,大中一路與鼎中路(西向東),高雄市政府警察局,左營分局,120.320300,22.678216,西向東,50
高雄市,左營區,大中路、鼎中路口東向西左側路口,高雄市政府警察局,左營分局,120.323444,22.676522,東向西,50
高雄市,左營區,大中路、鼎中路口東向西右側路口,高雄市政府警察局,左營分局,120.323591,22.676705,東向西,50
高雄市,楠梓區,德中路與大學二十九路口,高雄市政府警察局,楠梓分局,120.275631,22.725410,東向西,60
高雄市,楠梓區,開發路與經二路口,保二總隊,保二第一大隊,120.291690,22.601463,,
高雄市,楠梓區,左楠、後昌路口,高雄市政府警察局,楠梓分局,120.302536,22.707396,南向北,50
高雄市,楠梓區,德民路與海專路口,高雄市政府警察局,楠梓分局,120.303787,22.725505,西向東,60
高雄市,楠梓區,左楠路與加昌路口,高雄市政府警察局,楠梓分局,120.303934,22.717357,南向北,50
高雄市,楠梓區,中央路25號,保二總隊,保二第一大隊,120.304210,22.722369,,
高雄市,楠梓區,加昌路367號前,高雄市政府警察局,楠梓分局,120.310203,22.719554,東西向,50
高雄市,楠梓區,高楠、水管路口(機車道),高雄市政府警察局,楠梓分局,120.324482,22.707129,北向南,40
高雄市,楠梓區,高楠公路1015-6號前,高雄市政府警察局,楠梓分局,120.325355,22.717821,南向北,60
高雄市,楠梓區,高楠公路金屬研發中心前,高雄市政府警察局,楠梓分局,120.325551,22.712827,南向北,60
高雄市,楠梓區,高楠公路與德民路口以北135公尺處,高雄市政府警察局,楠梓分局,120.325551,22.712827,南向北,60
高雄市,楠梓區,創新路、土庫路口,高雄市政府警察局,楠梓分局,120.327449,22.743008,西向東,50
高雄市,楠梓區,楠陽、鳳楠路口,高雄市政府警察局,楠梓分局,120.330024,22.723957,西向東,60
高雄市,楠梓區,旗楠路與土庫路口,高雄市政府警察局,楠梓分局,120.332864,22.735595,東向西,50
高雄市,楠梓區,旗楠、常德路口,高雄市政府警察局,楠梓分局,120.336875,22.740109,東向西,60
高雄市,三民區,同盟三路與十全三路口往西220公尺處,高雄市政府警察局,三民第一分局,120.284286,22.647367,東向西,50
高雄市,三民區,九如三路(中都街與九如大橋中段),高雄市政府警察局,三民第一分局,120.286111,22.643929,東向西,50
高雄市,三民區,鼎力路橋,高雄市政府警察局,三民第二分局,120.302833,22.642716,東向西,50
高雄市,三民區,自由一路與同盟一路,高雄市政府警察局,三民第一分局,120.309006,22.647724,北向南,50
高雄市,三民區,同盟路高醫大門,高雄市政府警察局,三民第一分局,120.310069,22.649115,西向東,50
高雄市,三民區,大順一路新上國小前,高雄市政府警察局,三民第二分局,120.311530,22.656176,東向西,50
高雄市,三民區,民族、承德路口,高雄市政府警察局,三民第二分局,120.314199,22.642304,南向北,60
高雄市,三民區,河堤、民族一路543巷路口,高雄市政府警察局,三民第二分局,120.314915,22.666989,北向南,50
高雄市,三民區,民族一路268號前,高雄市政府警察局,三民第二分局,120.314951,22.649855,南向北,60
高雄市,三民區,民族一路與裕誠路,高雄市政府警察局,三民第二分局,120.315417,22.653701,北向南,60
高雄市,三民區,民族、裕誠路口(機車道),高雄市政府警察局,三民第二分局,120.316167,22.663258,南向北,40
高雄市,三民區,明誠一路 528 號對面,高雄市政府警察局,三民第二分局,120.320013,22.659960,西向東,50
高雄市,三民區,九如、平等路口,高雄市政府警察局,三民第二分局,120.320430,22.639828,西向東,50
高雄市,三民區,大順二路與建德路口,高雄市政府警察局,三民第二分局,120.325435,22.647139,北向南,50
高雄市,三民區,建工、新民路口往東20公尺處,高雄市政府警察局,三民第二分局,120.325516,22.650263,西向東,50
高雄市,三民區,明誠一路280號,高雄市政府警察局,三民第二分局,120.325981,22.659600,東向西,50
高雄市,三民區,明誠、大裕路口,高雄市政府警察局,三民第二分局,120.328428,22.659721,西向東,50
高雄市,三民區,九如一路、大順二路口,高雄市政府警察局,三民第二分局,120.328505,22.639074,東向西,50
高雄市,三民區,九如路與中庸路,高雄市政府警察局,三民第一分局,120.329113,22.639036,西向東,60
高雄市,三民區,大昌二路420巷,高雄市政府警察局,三民第二分局,120.331829,22.649923,南向北,50
高雄市,三民區,大昌二路28號,高雄市政府警察局,三民第一分局,120.332491,22.641221,南向北,50
高雄市,三民區,九如一路光武國小旁,高雄市政府警察局,三民第二分局,120.333844,22.638255,東向西,50
高雄市,三民區,中山高西側便道、九如路口,高雄市政府警察局,三民第二分局,120.336788,22.637760,北向南,50
高雄市,三民區,九如、中山高東側便道,高雄市政府警察局,三民第二分局,120.337787,22.637416,東向西,50
高雄市,三民區,澄清、覺民路口,高雄市政府警察局,三民第二分局,120.344921,22.638271,南向北,50
高雄市,三民區,澄清、澄和路口,高雄市政府警察局,三民第二分局,120.346441,22.644697,北向南,50
高雄市,新興區,民生路與仁愛路口,高雄市政府警察局,新興分局,120.332879,22.735595,西向東,50
高雄市,前金區,中華三路與民生二路口,高雄市政府警察局,新興分局,120.296298,22.628567,北向南,50
高雄市,苓雅區,五福三路與英雄路口,高雄市政府警察局,苓雅分局,120.295859,22.621442,東向西,50
高雄市,苓雅區,中山二路432號前,高雄市政府警察局,苓雅分局,120.302654,22.619112,南向北,50
高雄市,苓雅區,高雄市苓雅區中山二路361號前,高雄市政府警察局,苓雅分局,120.303299,22.616565,北向南,50
高雄市,苓雅區,五福一路與和平一路口,高雄市政府警察局,苓雅分局,120.318200,22.628725,西向東,50
高雄市,苓雅區,中正地下道(東向西出口),高雄市政府警察局,苓雅分局,120.320038,22.630128,東向西,50
高雄市,苓雅區,五福、凱旋路口,高雄市政府警察局,苓雅分局,120.321106,22.629811,西向東,50
高雄市,苓雅區,建國路與武廟路口,高雄市政府警察局,苓雅分局,120.321806,22.633484,東向西,50
高雄市,苓雅區,中正地下道(西向東出口),高雄市政府警察局,苓雅分局,120.325019,22.629728,西向東,50
高雄市,苓雅區,武營、三多路口,高雄市政府警察局,苓雅分局,120.335901,22.623599,南向北,50
高雄市,苓雅區,建國一路中山高涵洞東側,高雄市政府警察局,苓雅分局,120.336708,22.630255,西向北,50
高雄市,苓雅區,建國一、正義路口,高雄市政府警察局,苓雅分局,120.338013,22.629830,西向東,50
高雄市,苓雅區,中正一路（802國軍總醫院旁）,高雄市政府警察局,苓雅分局,120.339462,22.625674,西向東,50
高雄市,前鎮區,中一路與中四路口,保二總隊,保二第一大隊,22.601463,120.291690,,
高雄市,前鎮區,環區三路、西四街口,保二總隊,保二第一大隊,120.288922,22.602273,,
高雄市,前鎮區,成功二路與興發路口,高雄市政府警察局,前鎮分局,120.302683,22.601267,北向南,50
高雄市,前鎮區,中山三路與正勤路口,高雄市政府警察局,前鎮分局,120.309194,22.604418,北向南,60
高雄市,前鎮區,中山三路與文橫路,高雄市政府警察局,前鎮分局,120.312612,22.600558,南向北,60
高雄市,前鎮區,過港隧道北孔〈前鎮往旗津方向〉機車道1100M處,高雄港警總隊,,120.314557,22.563587,南向北,50
高雄市,前鎮區,高雄市前鎮區三多二路與桂林街口,高雄市政府警察局,前鎮分局,120.315742,22.617517,西向東,50
高雄市,前鎮區,凱旋四路與中華五路口,高雄市政府警察局,前鎮分局,120.316644,22.596745,西向東,50
高雄市,前鎮區,凱旋四路與籬仔內路口,高雄市政府警察局,前鎮分局,120.316644,22.596745,南向北,50
高雄市,前鎮區,凱旋四路與凱旋四路424巷口,高雄市政府警察局,前鎮分局,120.316644,22.596745,西向東,40
高雄市,前鎮區,一心、和平路口,高雄市政府警察局,前鎮分局,120.316908,22.608434,西向東,50
高雄市,前鎮區,一心、光華路口,高雄市政府警察局,前鎮分局,120.317053,22.608536,東向西,50
高雄市,前鎮區,凱旋四路、中山四路口,高雄市政府警察局,前鎮分局,120.317518,22.596736,西向東,50
高雄市,前鎮區,中山四路地下道(南向北出口),高雄市政府警察局,前鎮分局,120.325650,22.584517,南向北,60
高雄市,前鎮區,大貨車專用道(北上),高雄市政府警察局,前鎮分局,120.325940,22.575213,南向北,40
高雄市,前鎮區,大貨車專用道(南下),高雄市政府警察局,前鎮分局,120.326097,22.578004,東向西,40
高雄市,前鎮區,中山四路地下道(北向南出口),高雄市政府警察局,前鎮分局,120.326496,22.583428,北向南,60
高雄市,前鎮區,凱旋三路與二聖一路口,高雄市政府警察局,前鎮分局,120.326790,22.612075,北向南,50
高雄市,前鎮區,保泰路與公正路,高雄市政府警察局,前鎮分局,120.333084,22.602111,東向西,50
高雄市,前鎮區,保泰、瑞隆路口,高雄市政府警察局,前鎮分局,120.338568,22.605716,南向北,50
高雄市,旗津區,過港隧道南孔〈旗津往前鎮方向〉汽車道1367M處,高雄港警總隊,,120.311960,22.561486,北向南,60
高雄市,旗津區,過港隧道南孔〈旗津往前鎮方向〉機車道1100M處,高雄港警總隊,,120.313226,22.562417,北向南,50
高雄市,小港區,東亞南路、平和7路路口,高雄市政府警察局,小港分局,120.332208,22.561942,北向南,60
高雄市,小港區,東亞南路、平和2路路口,高雄市政府警察局,小港分局,120.334427,22.559050,南向北,60
高雄市,小港區,南星路與丹山路,高雄市政府警察局,小港分局,120.338646,22.528667,北向南,50
高雄市,小港區,南星路與中林路(南向北),高雄市政府警察局,小港分局,120.338646,22.528667,南向北,40
高雄市,小港區,中安路223號前,高雄市政府警察局,小港分局,120.340726,22.583259,東向西,50
高雄市,小港區,南星、中林路口(北向南),高雄市政府警察局,小港分局,120.346679,22.521088,北向南,40
高雄市,小港區,沿海一路與宏平路,高雄市政府警察局,小港分局,120.353685,22.565087,南向北,50
高雄市,小港區,中安路與明聖街230巷口,高雄市政府警察局,小港分局,120.353872,22.584775,西向東,50
高雄市,小港區,南星三路段(沿海路以北700公尺處),高雄市政府警察局,小港分局,120.354638,22.513892,北向南,40
高雄市,小港區,沿海一路與中鋼路口(南下),高雄市政府警察局,小港分局,120.356541,22.561512,北向南,60
高雄市,小港區,沿海一路與中鋼路口(北上),高雄市政府警察局,小港分局,120.357465,22.560804,南向北,60
高雄市,小港區,中山四路段(平和東路以北50公尺處),高雄市政府警察局,小港分局,120.360845,22.555318,北向南,40
高雄市,小港區,沿海三路與鳳鳴路,高雄市政府警察局,小港分局,120.366677,22.523661,北向南,50
高雄市,小港區,沿海三路與友成巷口,高雄市政府警察局,小港分局,120.366677,22.523661,南向北,60
高雄市,小港區,高松、松正路口,高雄市政府警察局,小港分局,120.376787,22.570360,東向西,50
高雄市,小港區,高坪22路、27街路口,高雄市政府警察局,小港分局,120.384890,22.558118,東向西,50
高雄市,小港區,高坪18路與高坪15路,高雄市政府警察局,小港分局,120.392671,22.558990,西向東,50
高雄市,鳳山區,南華一路保安二街口,高雄市政府警察局,鳳山分局,120.341764,22.598091,東向西,50
高雄市,鳳山區,南華一路與和成路,高雄市政府警察局,鳳山分局,120.345119,22.593715,西向東,60
高雄市,鳳山區,建國路與青年路口,高雄市政府警察局,鳳山分局,120.350961,22.637440,東向西,70
高雄市,鳳山區,建國路三段與澄清路口,高雄市政府警察局,鳳山分局,120.351247,22.637336,東向西,70
高雄市,鳳山區,溪濱路與園墘路口,高雄市政府警察局,鳳山分局,120.354448,22.592753,南向北,40
高雄市,鳳山區,國泰路一段與鳳頂路口,高雄市政府警察局,鳳山分局,120.358057,22.614472,西向東,50
高雄市,鳳山區,鳳頂路、過埤路口(西向東),高雄市政府警察局,鳳山分局,120.358336,22.590328,西向東,60
高雄市,鳳山區,鳳頂路與田中央路口,高雄市政府警察局,鳳山分局,120.359211,22.594450,南向北,60
高雄市,鳳山區,鳳頂路(台糖加油站對面),高雄市政府警察局,鳳山分局,120.360016,22.598097,北向南,60
高雄市,鳳山區,建國路二段與經武路口,高雄市政府警察局,鳳山分局,120.360605,22.635695,西向東,70
高雄市,鳳山區,維武路陸軍官校側門以北50公尺處,高雄市政府警察局,鳳山分局,120.365397,22.618024,北向南,40
高雄市,鳳山區,中山東路、仁愛路口,高雄市政府警察局,鳳山分局,120.371952,22.624710,北向南,50
高雄市,鳳山區,中山東路與光遠路口,高雄市政府警察局,鳳山分局,120.372638,22.624910,南向北,50
高雄市,林園區,台25線14.5公里處,高雄市政府警察局,林園分局,120.395839,22.517937,北向南,70
高雄市,林園區,沿海路林園南路口,高雄市政府警察局,林園分局,120.396100,22.500326,西向東,60
高雄市,林園區,中門路與南星路口(慢車道),高雄市政府警察局,林園分局,120.404663,22.493526,南向北,50
高雄市,林園區,中門路與南星路口(快車道),高雄市政府警察局,林園分局,120.404663,22.496698,南向北,70
高雄市,大寮區,內坑路與仁德路口,高雄市政府警察局,林園分局,120.385207,22.589316,東向西,60
高雄市,大寮區,鳳屏一路與民貴街口,高雄市政府警察局,林園分局,120.391314,22.635447,東向西,50
高雄市,大寮區,內坑路161之21號前,高雄市政府警察局,林園分局,120.398056,22.599596,西向東,60
高雄市,大寮區,新厝路119-31號以西60公尺處,高雄市政府警察局,林園分局,120.403839,22.561409,西向東,50
高雄市,大寮區,鳳林一路與鳳林路四段,高雄市政府警察局,林園分局,120.407161,22.544908,北向南,70
高雄市,大寮區,高雄市大寮區鳳屏二路與江山路口,高雄市政府警察局,林園分局,120.408812,22.640906,西向東,70
高雄市,大寮區,台88線快速道路西向東7.4公里處,高雄市政府警察局,林園分局,120.409297,22.586541,西向東,90
高雄市,大寮區,鳳林二路與濃公路,高雄市政府警察局,林園分局,120.409902,22.573916,北向南,70
高雄市,大寮區,大寮區鳳屏二路高屏大橋高雄端,高雄市政府警察局,林園分局,120.413292,22.641577,東向西,70
高雄市,大寮區,台29線108.4公里處,高雄市政府警察局,林園分局,120.414757,22.532355,北向南,60
高雄市,大寮區,台29線96.5公里處,高雄市政府警察局,林園分局,120.424270,22.625746,南向北,60
高雄市,大寮區,河堤路三段與公園街,高雄市政府警察局,林園分局,120.432405,22.565211,北向南,50
高雄市,大寮區,台88線快速道路東向西10公里處大發交流道前,高雄市政府警察局,林園分局,120.433383,22.592665,東向西,90
高雄市,大社區,和平路二段與中華路14巷口,高雄市政府警察局,仁武分局,120.359934,22.722357,東向西,60
高雄市,大社區,和平路一段710-1號前,高雄市政府警察局,仁武分局,120.361744,22.741706,東向西,60
高雄市,仁武區,高楠公路高楠新村口路口（機車道）,高雄市政府警察局,仁武分局,120.321592,22.692159,北向南,40
高雄市,仁武區,仁雄路與澄仁路口,高雄市政府警察局,仁武分局,120.345926,22.677249,西向東,50
高雄市,仁武區,鳳仁路與新庄路,高雄市政府警察局,仁武分局,120.348025,22.696135,北向南,60
高雄市,仁武區,澄觀路與八德南路,高雄市政府警察局,仁武分局,120.355676,22.692987,東向西,50
高雄市,仁武區,澄觀路1段(新庄路以西150公尺處),高雄市政府警察局,仁武分局,120.357936,22.694105,北向南,60
高雄市,仁武區,鳳仁路5-13號前,高雄市政府警察局,仁武分局,120.359083,22.675001,南向北,60
高雄市,仁武區,鳳仁路與成功路口,高雄市政府警察局,仁武分局,120.360845,22.694793,南向北,60
高雄市,仁武區,水管路3段(高52-1線4K處),高雄市政府警察局,仁武分局,120.364000,22.702817,東向西,60
高雄市,仁武區,義大二路與公館1巷3號前,高雄市政府警察局,仁武分局,120.390008,22.715529,北向南,60
高雄市,鳥松區,中正路台亞加油站前,高雄市政府警察局,仁武分局,120.365198,22.653227,南向北,60
高雄市,岡山區,高雄市岡山區岡山北路267號前,高雄市政府警察局,岡山分局,120.273585,22.817284,北向南,70
高雄市,岡山區,介壽東路與和平路口,高雄市政府警察局,岡山分局,120.304177,22.785052,東向西,60
高雄市,岡山區,嘉新東路與聖森路,高雄市政府警察局,岡山分局,120.306170,22.807589,西向東,60
高雄市,岡山區,嘉峰路高鐵橋下,高雄市政府警察局,岡山分局,120.315478,22.832904,北向南,50
高雄市,岡山區,田厝路田厝一路口,高雄市政府警察局,岡山分局,120.317520,22.836243,南向北,60
高雄市,橋頭區,白樹路206號前,高雄市政府警察局,岡山分局,120.303032,22.758197,西向東,50
高雄市,橋頭區,成功北路筆秀路口,高雄市政府警察局,岡山分局,120.305202,22.768276,南向北,70
高雄市,橋頭區,成功北路與鐵道北路,高雄市政府警察局,岡山分局,120.308954,22.753901,北向南,60
高雄市,橋頭區,高雄市橋頭區成功南路與仕隆路口,高雄市政府警察局,岡山分局,120.311587,22.754935,北向南,60
高雄市,燕巢區,旗楠路段〈鳳旗路44號之10旁〉,高雄市政府警察局,岡山分局,120.356279,22.755227,東向西,50
高雄市,燕巢區,高雄市燕巢區中興路與南一巷口(燕巢國中前),高雄市政府警察局,岡山分局,120.362362,22.786931,北向南,60
高雄市,燕巢區,鳳澄路7之32號前,高雄市政府警察局,岡山分局,120.363950,22.758594,北向南,60
高雄市,燕巢區,台22線樹德科技前路口,高雄市政府警察局,岡山分局,120.374635,22.764708,西向東,50
高雄市,燕巢區,台22線深水國小前路口,高雄市政府警察局,岡山分局,120.391425,22.772251,東向西,50
高雄市,燕巢區,台22線高應大前路口,高雄市政府警察局,岡山分局,120.400645,22.772306,東向西,60
高雄市,田寮區,鹿埔路19號前,高雄市政府警察局,湖內分局,120.423279,22.887613,西向東,50
高雄市,路竹區,大公路成功路口,高雄市政府警察局,湖內分局,120.227463,22.861840,北向南,70
高雄市,路竹區,中山南路、北嶺二路,高雄市政府警察局,湖內分局,120.266080,22.829306,南向北,60
高雄市,路竹區,環球路新生路,高雄市政府警察局,湖內分局,120.292526,22.878794,東向西,50
高雄市,湖內區,中山路一段與284巷口,高雄市政府警察局,湖內分局,120.244757,22.886202,南向北,60
高雄市,茄萣區,高1-1線與崎漏路口,高雄市政府警察局,湖內分局,120.210881,22.876348,東向西,60
高雄市,永安區,保安路與維新路,高雄市政府警察局,岡山分局,120.240274,22.818702,南向北,60
高雄市,旗山區,旗山區旗南三路8號以北50公尺處,高雄市政府警察局,旗山分局,120.462392,22.836104,北向南,70
高雄市,旗山區,台28線29.2公里處,高雄市政府警察局,旗山分局,120.473200,22.883623,西向東,50
高雄市,旗山區,延平1路與旗甲路1段路口,高雄市政府警察局,旗山分局,120.481135,22.898965,北向南,60
高雄市,旗山區,中華路與華中街口,高雄市政府警察局,旗山分局,120.483722,22.880231,西向東,50
高雄市,美濃區,美濃區中山路二段359巷口,高雄市政府警察局,旗山分局,120.519852,22.896793,南向北,60
高雄市,美濃區,美興街232號前(月光山隧道),高雄市政府警察局,旗山分局,120.536556,22.912997,南向北,50
高雄市,美濃區,復興街一段480號前,高雄市政府警察局,旗山分局,120.549200,22.870377,北向南,50
高雄市,美濃區,中華路77號對面(台28線40.7K),高雄市政府警察局,旗山分局,120.573283,22.875541,西向東,60
高雄市,美濃區,中華路(台28線)與獅山街口,高雄市政府警察局,旗山分局,120.574437,22.874726,東向西,60
高雄市,六龜區,旗六公路新威國小前,高雄市政府警察局,六龜分局,120.626681,22.897559,西向東,60
高雄市,杉林區,台29線與清水路中學巷路口(杉林國中前),高雄市政府警察局,旗山分局,120.559240,22.986418,北向南,60
高雄市,內門區,旗文路(台三線401.88K),高雄市政府警察局,旗山分局,120.460793,22.917000,北向南,60
新北市,板橋區,溪城路與金門街369巷口(往樹林),新北市政府警察局,板橋分局,121.428290,24.981370,,
新北市,板橋區,環河路沙崙抽水站前(往新莊方向),新北市政府警察局,板橋分局,121.428825,24.978920,,
新北市,板橋區,新北環河快速道路7公里處(往三重),新北市政府警察局,板橋分局,121.428825,25.023760,,
新北市,板橋區,環河西路5段「歡仔園防汛陸橋」前(往土城),新北市政府警察局,板橋分局,121.441400,25.005330,,
新北市,板橋區,環河西路5段與板城路口(往土城),新北市政府警察局,板橋分局,121.444068,25.014826,,
新北市,板橋區,臺65線快速公路5.4公里(往土城),新北市政府警察局,板橋分局,121.447514,25.018425,,
新北市,板橋區,65線快速公路7公里(往新莊),新北市政府警察局,板橋分局,121.451647,25.006398,,
新北市,板橋區,臺64線快速公路20.2公里(往西),新北市政府警察局,海山分局,121.465090,25.028323,,
新北市,板橋區,臺64線快速公路20.24公里(往東),新北市政府警察局,海山分局,121.465396,25.028340,,
新北市,板橋區,縣民大道3段與民生路口(往板橋),新北市政府警察局,海山分局,121.471630,25.018770,,
新北市,板橋區,環河路209178燈桿前(往華江橋),新北市政府警察局,板橋分局,121.474850,25.037210,,
新北市,板橋區,文化路2段與長江路口(往板橋),新北市政府警察局,海山分局,121.476000,25.034200,,
新北市,板橋區,民生路1段與三民路2段正隆巷口(往板橋),新北市政府警察局,海山分局,121.476170,25.012050,,
新北市,板橋區,華江橋下坡處(往板橋),新北市政府警察局,板橋分局,121.479191,25.035868,,
新北市,板橋區,中山路光復橋頭(往板橋),新北市政府警察局,海山分局,121.483960,25.020800,,
新北市,三重區,重新堤外道8.9公里處(往新莊),新北市政府警察局,三重分局,121.467120,25.040940,,
新北市,三重區,中山橋頭(南下),新北市政府警察局,三重分局,121.479610,25.061500,,
新北市,三重區,中山高架橋上(往臺北市),新北市政府警察局,三重分局,121.479626,25.061606,,
新北市,三重區,新北環河快速道路3.2公里處(往中和),新北市政府警察局,三重分局,121.485690,25.047180,,
新北市,三重區,新北環河快速道路新北大橋旁(往中和),新北市政府警察局,三重分局,121.486148,25.047406,,
新北市,三重區,新北環河快速道路3公里處(往蘆洲),新北市政府警察局,三重分局,121.493016,25.051328,,
新北市,三重區,重陽橋頭(往蘆洲),新北市政府警察局,三重分局,121.494190,25.087170,,
新北市,三重區,環河北路3段168號前(往三重或蘆洲),新北市政府警察局,三重分局,121.494280,25.088420,,
新北市,三重區,中山高架橋上(往新莊),新北市政府警察局,三重分局,121.496232,25.054480,,
新北市,三重區,環河北路3段重陽橋下(往三重),新北市政府警察局,三重分局,121.497160,25.085100,,
新北市,三重區,環河北路2段304號(往蘆洲),新北市政府警察局,三重分局,121.499080,25.082450,,
新北市,中和區,臺64線快速公路23公里(往西),新北市政府警察局,中和第二分局,121.481739,25.010017,,
新北市,中和區,環河西路3段(往永和),新北市政府警察局,中和第二分局,121.488790,25.011070,,
新北市,中和區,臺64線快速公路25.3公里(往東),新北市政府警察局,中和第二分局,121.491662,24.994188,,
新北市,中和區,中正路與中興街(往秀朗橋方向),新北市政府警察局,中和第一分局,121.500449,24.993511,,
新北市,中和區,臺64線快速公路26.7公里(往西),新北市政府警察局,中和第一分局,121.505696,24.993585,,
新北市,永和區,新北環快高架保生路匝道處(往中和),新北市政府警察局,永和分局,121.514866,25.018326,,
新北市,永和區,環河東路2段10號(往中和或永和方向),新北市政府警察局,永和分局,121.524758,25.009336,,
新北市,新莊區,青山路1段201號前(往新莊),新北市政府警察局,新莊分局,121.397680,25.031760,,
新北市,新莊區,青山路1段169號前(往新莊),新北市政府警察局,新莊分局,121.400760,25.030160,,
新北市,新莊區,壽山路180-2號(往新莊),新北市政府警察局,新莊分局,121.407187,25.039511,,
新北市,新莊區,新北大道7段與鳳山街口(往中正路),新北市政府警察局,新莊分局,121.412800,25.025320,,
新北市,新莊區,新北大道7段與鳳山街口(往青山路),新北市政府警察局,新莊分局,121.412990,25.025240,,
新北市,新莊區,環河路17越堤道路口(往新莊),新北市政府警察局,新莊分局,121.441160,25.022380,,
新北市,新莊區,臺65線快速公路1.8公里(往五股),新北市政府警察局,新莊分局,121.442267,25.051294,,
新北市,新莊區,臺65線快速公路1.8公里(往板橋),新北市政府警察局,新莊分局,121.442267,25.051294,,
新北市,新莊區,中環路2段臺65線高架下(新泰路401巷29號對面),新北市政府警察局,新莊分局,121.442295,25.043855,,
新北市,新莊區,中環路3段臺65線下橋墩(往中原路),新北市政府警察局,新莊分局,121.442570,25.051360,,
新北市,新莊區,106甲線大漢橋新莊端(往新莊),新北市政府警察局,新莊分局,121.461049,25.037607,,
新北市,新莊區,重新堤外道9.06公里處(往三重),新北市政府警察局,新莊分局,121.465460,25.040160,,
新北市,新店區,安康路3段新加坡社區前(往安坑),新北市政府警察局,新店分局,121.473790,24.942020,,
新北市,新店區,安康路3段與錦秀路口(往新店),新北市政府警察局,新店分局,121.478970,24.946040,,
新北市,新店區,安和路3段與永安街口(往新店),新北市政府警察局,新店分局,121.516555,24.985772,,
新北市,新店區,安和路2段169巷口(往新店),新北市政府警察局,新店分局,121.518620,24.974590,,
新北市,新店區,安康路1段與莒光路口(往新店),新北市政府警察局,新店分局,121.528340,24.961950,,
新北市,新店區,環河路與中正路口(往新店),新北市政府警察局,新店分局,121.533290,24.991610,,
新北市,新店區,環河路小碧潭捷運站旁(往碧潭),新北市政府警察局,新店分局,121.535660,24.969280,,
新北市,新店區,環河路白馬寺前(往臺北或碧潭),新北市政府警察局,新店分局,121.537190,24.966010,,
新北市,新店區,北宜路1段105巷口(往新店),新北市政府警察局,新店分局,121.539370,24.955200,,
新北市,新店區,北新路3段與順安街口(往新店),新北市政府警察局,新店分局,121.541080,24.985110,,
新北市,新店區,中興路1段與檳榔路口 (往臺北),新北市政府警察局,新店分局,121.541970,24.963430,,
新北市,新店區,中興路3段與文化路口(往新店),新北市政府警察局,新店分局,121.544140,24.980540,,
新北市,新店區,中興路3段與寶中路口 (往臺北),新北市政府警察局,新店分局,121.544918,24.979049,,
新北市,新店區,北宜路1段246號前(往坪林),新北市政府警察局,新店分局,121.545010,24.953000,,
新北市,新店區,寶橋路78巷口(往中興路方向),新北市政府警察局,新店分局,121.546160,24.975492,,
新北市,新店區,新烏路2段與屈尺路口(往烏來),新北市政府警察局,新店分局,121.549350,24.922820,,
新北市,新店區,新烏路2段與屈尺路口(往新店),新北市政府警察局,新店分局,121.549410,24.922460,,
新北市,新店區,北宜路2段82巷口(往坪林),新北市政府警察局,新店分局,121.553390,24.953320,,
新北市,新店區,北宜路2段351巷口(往新店),新北市政府警察局,新店分局,121.558150,24.954120,,
新北市,樹林區,中山路高架橋頭(往樹林),新北市政府警察局,樹林分局,121.384380,24.967170,,
新北市,樹林區,八德街與堤外道路(往鶯歌方向),新北市政府警察局,樹林分局,121.391545,24.968590,,
新北市,樹林區,中山路3段27巷口(往樹林),新北市政府警察局,樹林分局,121.401450,24.975370,,
新北市,樹林區,中正路與三福路口(往樹林),新北市政府警察局,樹林分局,121.409400,25.017240,,
新北市,樹林區,中正路與三俊街口(往桃園),新北市政府警察局,樹林分局,121.410680,25.015030,,
新北市,樹林區,大安路與文化街口(往新莊),新北市政府警察局,樹林分局,121.415730,24.989650,,
新北市,樹林區,大安路249巷口(往新莊),新北市政府警察局,樹林分局,121.419210,24.994230,,
新北市,樹林區,大安路249巷口(往鶯歌),新北市政府警察局,樹林分局,121.419450,24.994500,,
新北市,樹林區,大安路111巷口(往新莊),新北市政府警察局,樹林分局,121.422300,24.997990,,
新北市,樹林區,中正路浮州橋頭(往樹林),新北市政府警察局,樹林分局,121.426260,25.000480,,
新北市,樹林區,樹林陸橋樹林端(板橋往樹林方向),新北市政府警察局,樹林分局,121.428056,24.998965,,
新北市,鶯歌區,114線35.2公里(往鶯歌),新北市政府警察局,三峽分局,121.328370,24.955382,,
新北市,鶯歌區,鶯桃路與永和路口(往鶯歌),新北市政府警察局,三峽分局,121.331230,24.966970,,
新北市,鶯歌區,中正三路193巷口(往大溪),新北市政府警察局,三峽分局,121.335561,24.939450,,
新北市,鶯歌區,西湖街191號前(往樹林),新北市政府警察局,三峽分局,121.338420,24.963900,,
新北市,鶯歌區,中正二路155之6號旁(往鶯歌),新北市政府警察局,三峽分局,121.344030,24.949190,,
新北市,鶯歌區,中正一路405號前(往桃園),新北市政府警察局,三峽分局,121.359780,24.957080,,
新北市,鶯歌區,中正一路與碧龍巷口(往鶯歌),新北市政府警察局,三峽分局,121.364823,24.956475,,
新北市,三峽區,大埔路臺7乙線7.37公里處(往桃園),新北市政府警察局,淡水分局,24.860119,121.360729,,
新北市,三峽區,大埔路臺7乙線1.97公里處(往三峽),新北市政府警察局,淡水分局,24.895483,121.371382,,
新北市,三峽區,中正路2段264號前(往大溪),新北市政府警察局,淡水分局,121.365890,24.912370,,
新北市,三峽區,復興路與大勇街口(往鶯歌),新北市政府警察局,淡水分局,121.367170,24.939090,,
新北市,三峽區,中正路１段與大同路口(往復興路),新北市政府警察局,淡水分局,121.371770,24.926810,,
新北市,三峽區,添福路107之15號旁(往插角),新北市政府警察局,淡水分局,121.373350,24.902880,,
新北市,三峽區,溪東路197號前(往三峽),新北市政府警察局,淡水分局,121.403950,24.933680,,
新北市,三峽區,溪東路350號前(往新店),新北市政府警察局,淡水分局,121.411250,24.929730,,
新北市,三峽區,介壽路2段2號前(往三峽),新北市政府警察局,淡水分局,121.422690,24.959290,,
新北市,三峽區,介壽路3段148號前(往土城),新北市政府警察局,淡水分局,121.422690,24.959290,,
新北市,三峽區,安坑路13之8號(往新店),新北市政府警察局,淡水分局,121.441380,24.926190,,
新北市,三峽區,安坑路40號前(往三峽),新北市政府警察局,淡水分局,121.454530,24.932040,,
新北市,淡水區,中正路家畜試驗所前(往漁人碼頭),新北市政府警察局,淡水分局,121.432090,25.174890,,
新北市,淡水區,中正路與農田水利會前(往漁人碼頭),新北市政府警察局,淡水分局,121.435730,25.173340,,
新北市,淡水區,臺2線8.1公里與埤島里 (往臺北),新北市政府警察局,淡水分局,121.446470,25.193370,,
新北市,淡水區,臺2線8公里與新市二路4段(往三芝),新北市政府警察局,淡水分局,121.446850,25.192180,,
新北市,淡水區,臺2線8.8公里與北六線路口(往三芝),新北市政府警察局,淡水分局,121.447460,25.198260,,
新北市,淡水區,臺2線9.7公里與北八線路口(往三芝),新北市政府警察局,淡水分局,121.449080,25.206170,,
新北市,淡水區,臺2線與洲子灣路口(往臺北),新北市政府警察局,淡水分局,121.450220,25.218660,,
新北市,淡水區,臺2線10.56公里處(往三芝),新北市政府警察局,淡水分局,121.450650,25.213630,,
新北市,淡水區,臺2線與正德國中賢孝校區前(往臺北),新北市政府警察局,淡水分局,121.452030,25.224150,,
新北市,淡水區,中正東路與竿蓁二街口(往臺北),新北市政府警察局,淡水分局,121.452430,25.162720,,
新北市,淡水區,臺2線6.5公里與北新路口(往臺北),新北市政府警察局,淡水分局,121.452680,25.181030,,
新北市,淡水區,臺2線6.5公里與北新路口(往三芝),新北市政府警察局,淡水分局,121.453250,25.180690,,
新北市,淡水區,中正東路與小坪頂路口(往臺北),新北市政府警察局,淡水分局,121.454850,25.159610,,
新北市,淡水區,臺2線與小坪頂路口(往臺北),新北市政府警察局,淡水分局,121.456080,25.161750,,
新北市,淡水區,臺2線5.9公里與水源路口(往臺北),新北市政府警察局,淡水分局,121.456700,25.176370,,
新北市,淡水區,中正東路2段與八勢路口(往淡水),新北市政府警察局,淡水分局,121.459410,25.153280,,
新北市,淡水區,臺2線與紅樹林捷運站前(往臺北),新北市政府警察局,淡水分局,121.459470,25.154660,,
新北市,淡水區,臺2線5公里金龍橋下(往臺北),新北市政府警察局,淡水分局,121.460980,25.169050,,
新北市,汐止區,大同路1段與樟樹二路口(往汐止),新北市政府警察局,汐止分局,121.640210,25.059990,,
新北市,汐止區,大同路1段與樟樹一路口(往臺北),新北市政府警察局,汐止分局,121.642590,25.061110,,
新北市,汐止區,臺5線14.4公里處(往基隆),新北市政府警察局,汐止分局,121.651350,25.061570,,
新北市,汐止區,臺5線15.86公里處(往汐止),新北市政府警察局,汐止分局,121.664570,25.066710,,
新北市,汐止區,大同路3段205號前(往基隆),新北市政府警察局,汐止分局,121.671550,25.076990,,
新北市,汐止區,新臺五路與茄苳路口(往汐止方向),新北市政府警察局,汐止分局,121.674905,25.065942,,
新北市,汐止區,臺5線17.68公里處(往基隆或汐止),新北市政府警察局,汐止分局,121.681260,25.068420,,
新北市,汐止區,大同路3段與保新路口(往基隆),新北市政府警察局,汐止分局,121.683330,25.072780,,
新北市,瑞芳區,臺2丁線5.8公里處(往臺北),新北市政府警察局,瑞芳分局,121.774960,25.103690,,
新北市,瑞芳區,臺2丁線8.2公里處(往臺北),新北市政府警察局,瑞芳分局,121.787670,25.108450,,
新北市,瑞芳區,臺62線下明燈路匝道 (往瑞芳方向),新北市政府警察局,瑞芳分局,121.796246,25.112721,,
新北市,瑞芳區,臺62線快速公路16.9公里處(往基隆),新北市政府警察局,瑞芳分局,121.803439,25.117427,,
新北市,瑞芳區,臺62線快速公路16.9公里處(往瑞芳),新北市政府警察局,瑞芳分局,121.803439,25.117427,,
新北市,瑞芳區,中山路與東和街口(往南),新北市政府警察局,瑞芳分局,121.804050,25.106240,,
新北市,瑞芳區,臺2丁線與明燈路口(往瑞芳),新北市政府警察局,瑞芳分局,121.809430,25.107650,,
新北市,瑞芳區,臺2線72.4公里(往宜蘭),新北市政府警察局,瑞芳分局,121.816080,25.128070,,
新北市,瑞芳區,臺2線81公里欽賢國中旁(往宜蘭或往基隆),新北市政府警察局,瑞芳分局,121.816090,25.128070,,
新北市,瑞芳區,明燈路1段163號前(往瑞芳),新北市政府警察局,瑞芳分局,121.819370,25.107550,,
新北市,瑞芳區,臺2線81.2公里與南雅路 (往基隆),新北市政府警察局,瑞芳分局,121.888080,25.120770,,
新北市,瑞芳區,臺2線84.6公里鼻頭隧道口(往基隆),新北市政府警察局,瑞芳分局,121.917180,25.121200,,
新北市,土城區,中央路4段與龍泉路口(往土城),新北市政府警察局,土城分局,121.409130,24.949750,,
新北市,土城區,擺接堡路(環河路)與民權街口(往板橋),新北市政府警察局,土城分局,121.415910,24.964600,,
新北市,土城區,擺接堡路(環河路)與民權街口(往三峽),新北市政府警察局,土城分局,121.416210,24.964720,,
新北市,土城區,中央路3段與中興路口(往三峽),新北市政府警察局,土城分局,121.425660,24.962860,,
新北市,土城區,中央路3段與大安路(往土城交流道),新北市政府警察局,土城分局,121.432422,24.965454,,
新北市,土城區,臺65線快速公路10.4公里(往土城),新北市政府警察局,土城分局,121.437794,24.980923,,
新北市,土城區,臺65線快速公路10.4公里(往板橋),新北市政府警察局,土城分局,121.437794,24.980923,,
新北市,土城區,擺接堡路1號裕德國小前(往土城或板橋),新北市政府警察局,土城分局,121.439340,24.983744,,
新北市,土城區,金城路2段27號前(往土城),新北市政府警察局,土城分局,121.449390,24.977390,,
新北市,土城區,城林橋頭(往土城）,新北市政府警察局,土城分局,121.450800,24.978890,,
新北市,土城區,中華路1段與裕民路口(往中和),新北市政府警察局,土城分局,121.450800,24.978890,,
新北市,土城區,中華路2段與水源街口(往土城),新北市政府警察局,土城分局,121.450800,24.978890,,
新北市,土城區,金城路2段46巷口(往中和),新北市政府警察局,土城分局,121.450980,24.979190,,
新北市,蘆洲區,環堤大道與永樂街口(往五股),新北市政府警察局,蘆洲分局,121.455720,25.088990,,
新北市,蘆洲區,三民路與長榮路口(往蘆洲),新北市政府警察局,蘆洲分局,121.461280,25.093640,,
新北市,蘆洲區,環堤大道與民族路422巷口(往五股),新北市政府警察局,蘆洲分局,121.474160,25.097370,,
新北市,五股區,新五路2段279號(往成泰路),新北市政府警察局,蘆洲分局,121.443248,25.086462,,
新北市,五股區,新五路2段347號前(往新莊或五股),新北市政府警察局,蘆洲分局,121.445010,25.088440,,
新北市,五股區,臺64線快速公路10.4公里(往東),新北市政府警察局,蘆洲分局,121.448400,25.092220,,
新北市,五股區,成泰路4段22巷口(往蘆洲),新北市政府警察局,蘆洲分局,121.453510,25.107110,,
新北市,泰山區,大科路63之6號旁(往新莊),新北市政府警察局,新莊分局,121.401710,25.056610,,
新北市,泰山區,橫窠雅路22號對面(往新莊),新北市政府警察局,新莊分局,121.412640,25.068890,,
新北市,泰山區,新北大道6段85號(往台麗街),新北市政府警察局,新莊分局,121.427547,25.037805,,
新北市,林口區,臺61線快速公路19.8公里處(往八里),新北市政府警察局,新莊分局,121.305238,25.122051,,
新北市,林口區,文化北路一段與忠孝一路口(往八里),新北市政府警察局,新莊分局,121.361064,25.073348,,
新北市,林口區,臺15線14公里(往八里),新北市政府警察局,新莊分局,121.361245,25.133865,,
新北市,林口區,臺61線快速公路14公里 處(往八里),新北市政府警察局,新莊分局,121.361245,25.133865,,
新北市,林口區,文化三路1段368號(往林口),新北市政府警察局,新莊分局,121.364348,25.072107,,
新北市,林口區,文化北路與啟智學校前(往八里),新北市政府警察局,新莊分局,121.365897,25.078019,,
新北市,林口區,中山路與中原街口(往林口),新北市政府警察局,新莊分局,121.365906,25.078019,,
新北市,林口區,文化二路與仁愛二路口(往八里),新北市政府警察局,新莊分局,121.374551,25.076698,,
新北市,林口區,文化二路1段571號(往仁愛路2段方向),新北市政府警察局,新莊分局,121.375434,25.077879,,
新北市,林口區,文化一路與麗園街口(往林口),新北市政府警察局,新莊分局,121.375501,25.072770,,
新北市,林口區,文化北路2段與寶林路口(往八里),新北市政府警察局,新莊分局,121.375753,25.089590,,
新北市,林口區,文化一路與仁愛路口(往桃園),新北市政府警察局,新莊分局,121.376010,25.075790,,
新北市,林口區,仁愛路與公園路口(往林口),新北市政府警察局,新莊分局,121.376306,25.075711,,
新北市,林口區,文化三路2段328號前(往八里),新北市政府警察局,新莊分局,121.378090,25.085050,,
新北市,林口區,中山路562號(往文化三路2段方向),新北市政府警察局,新莊分局,121.378720,25.083277,,
新北市,林口區,仁愛路1段691號前與竹林路口(往林口),新北市政府警察局,新莊分局,121.386396,25.076771,,
新北市,深坑區,文山路三段16之1號前(往臺北),新北市政府警察局,新店分局,121.564601,24.988390,,
新北市,深坑區,106乙線0.5公里(往深坑),新北市政府警察局,新店分局,121.603510,24.999380,,
新北市,深坑區,文山路2段30巷口(往臺北),新北市政府警察局,新店分局,121.626530,24.998990,,
新北市,深坑區,106乙線與烏月路口(往臺北),新北市政府警察局,新店分局,121.631320,25.005900,,
新北市,石碇區,北宜路5段67號前(往新店),新北市政府警察局,新店分局,121.635673,24.954155,,
新北市,石碇區,臺9線26.2公里(往坪林或新店),新北市政府警察局,新店分局,121.647800,24.950290,,
新北市,石碇區,106線靜安路1段356號前(往深坑或平溪),新北市政府警察局,新店分局,121.648661,25.009440,,
新北市,坪林區,臺9線37.3公里(往宜蘭),新北市政府警察局,新店分局,121.704520,24.935520,,
新北市,坪林區,臺9線38公里(往坪林),新北市政府警察局,新店分局,121.710170,24.935310,,
新北市,坪林區,臺9線42.2公里(往宜蘭)、(往坪林),新北市政府警察局,新店分局,121.716820,24.910960,,
新北市,三芝區,臺2線13.5公里屯山國小前(往淡水),新北市政府警察局,淡水分局,121.456810,25.238030,,
新北市,三芝區,臺2線14.5公里與大片頭前(往金山),新北市政府警察局,淡水分局,121.459660,25.246750,,
新北市,三芝區,臺2線與海景街口(往石門),新北市政府警察局,淡水分局,121.470090,25.251020,,
新北市,三芝區,臺2線與海景街口(往淡水),新北市政府警察局,淡水分局,121.470480,25.251270,,
新北市,三芝區,臺2線17.5公里與車新路口(往臺北),新北市政府警察局,淡水分局,121.482480,25.263760,,
新北市,三芝區,臺2線18.05公里處(往金山),新北市政府警察局,淡水分局,121.486180,25.262190,,
新北市,三芝區,臺2線18.8公里處(往淡水),新北市政府警察局,淡水分局,121.492480,25.260030,,
新北市,三芝區,臺2線19.7公里與埔頭坑路口(往臺北),新北市政府警察局,淡水分局,121.501330,25.261660,,
新北市,石門區,臺2線與風管所前(往金山),新北市政府警察局,金山分局,121.519541,25.282287,,
新北市,石門區,臺2線25.56公里處(往金山),新北市政府警察局,金山分局,121.542970,25.288690,,
新北市,石門區,臺2線26.8公里處(往淡水),新北市政府警察局,金山分局,121.553600,25.291590,,
新北市,石門區,臺2線27.9公里與石門國中前（往金山）,新北市政府警察局,金山分局,121.564438,25.290960,,
新北市,石門區,臺2線28.5公里處(往淡水),新北市政府警察局,金山分局,121.568310,25.293640,,
新北市,石門區,臺2線與王公橋前(往金山),新北市政府警察局,金山分局,121.582020,25.295160,,
新北市,八里區,臺15線中山路3段383號前(往八里),新北市政府警察局,蘆洲分局,121.372470,25.137790,,
新北市,八里區,臺15線下罟村天皇宮前(往臺北),新北市政府警察局,蘆洲分局,121.381556,25.140261,,
新北市,八里區,臺15線與八仙樂園前(往桃園),新北市政府警察局,蘆洲分局,121.390240,25.142130,,
新北市,八里區,中華路3段236號長坑國小前(往八里),新北市政府警察局,蘆洲分局,121.390825,25.125595,,
新北市,八里區,長坑口14號旁(往八里),新北市政府警察局,蘆洲分局,121.393160,25.138980,,
新北市,八里區,臺64線快速公路2.85公里(往西),新北市政府警察局,蘆洲分局,121.403820,25.127440,,
新北市,八里區,中華路2段165巷與龜馬山路口(往八里),新北市政府警察局,蘆洲分局,121.407000,25.150880,,
新北市,八里區,中山路1段與忠八街口,新北市政府警察局,蘆洲分局,121.419427,25.159758,,
新北市,八里區,中華路1段與中山路口(往臺北),新北市政府警察局,蘆洲分局,121.423130,25.158790,,
新北市,八里區,龍米路3段48-51號(往中山路),新北市政府警察局,蘆洲分局,121.425489,25.159320,,
新北市,八里區,龍米路2段與觀海大道口(往中華路),新北市政府警察局,蘆洲分局,121.429120,25.159050,,
新北市,八里區,龍米路2段153之3號前(往八里),新北市政府警察局,蘆洲分局,121.440700,25.153100,,
新北市,八里區,龍米路2段168燈桿前(往臺北或八里),新北市政府警察局,蘆洲分局,121.442860,25.150610,,
新北市,八里區,龍米路2段米倉國小前(往八里),新北市政府警察局,蘆洲分局,121.445743,25.147260,,
新北市,八里區,龍米路2段聖心女中前(往臺北),新北市政府警察局,蘆洲分局,121.450090,25.135830,,
新北市,八里區,龍米路2段與龍形一街(往八里),新北市政府警察局,蘆洲分局,121.451380,25.130190,,
新北市,八里區,臺15線與龍形三街口(往臺北),新北市政府警察局,蘆洲分局,121.451540,25.132050,,
新北市,八里區,龍米路1段90巷口(往八里),新北市政府警察局,蘆洲分局,121.454580,25.123290,,
新北市,八里區,龍米路一段65巷口(往五股),新北市政府警察局,蘆洲分局,121.455557,25.121183,,
新北市,八里區,龍米路1段2之1號旁(往八里),新北市政府警察局,蘆洲分局,121.457570,25.115250,,
新北市,雙溪區,臺2丙線12.7公里(往雙溪),新北市政府警察局,瑞芳分局,121.793760,25.019140,,
新北市,貢寮區,臺2線91公里(往宜蘭),新北市政府警察局,瑞芳分局,121.914460,25.079520,,
新北市,貢寮區,臺2線與仁愛路口(往瑞芳),新北市政府警察局,瑞芳分局,121.923730,25.053340,,
新北市,貢寮區,臺2線與仁愛路口(往宜蘭),新北市政府警察局,瑞芳分局,121.923900,25.053630,,
新北市,貢寮區,臺2線96.55公里處(往宜蘭或臺北),新北市政府警察局,瑞芳分局,121.926550,25.040030,,
新北市,貢寮區,臺2線100.2公里處(往宜蘭),新北市政府警察局,瑞芳分局,121.940975,25.019351,,
新北市,貢寮區,臺2線104.6公里處(往宜蘭),新北市政府警察局,瑞芳分局,121.980170,25.022870,,
新北市,金山區,臺2線35.3公里處(往金山),新北市政府警察局,金山分局,121.623680,25.271290,,
新北市,金山區,臺2甲線0.9公里處(往金山或往臺北),新北市政府警察局,金山分局,121.623760,25.219710,,
新北市,金山區,臺2線與陽金公路口(往萬里),新北市政府警察局,金山分局,121.631680,25.221490,,
新北市,金山區,臺2線42.5公里處(往萬里),新北市政府警察局,金山分局,121.639820,25.217360,,
新北市,萬里區,臺2線加投81號前(往基隆),新北市政府警察局,金山分局,121.646500,25.212250,,
新北市,萬里區,臺2線44.3公里大鵬國小前(往金山),新北市政府警察局,金山分局,121.652750,25.208770,,
新北市,萬里區,臺2線45.2公里處(往金山),新北市政府警察局,金山分局,121.661110,25.206770,,
新北市,萬里區,臺2線47.1公里萬里隧道出口處(往金山),新北市政府警察局,金山分局,121.677600,25.200370,,
新北市,萬里區,臺2線48.3公里萬里隧道出口處(往基隆),新北市政府警察局,金山分局,121.683910,25.191810,,
新北市,萬里區,臺2線49.5公里處(往金山),新北市政府警察局,金山分局,121.687420,25.183760,,
臺中市,中區,公園路與中華路二段路口,臺中市政府警察局,第一分局,120.678815,24.147178,東向西,50
臺中市,中區,建國路與民權路口,臺中市政府警察局,第一分局,120.682220,24.135894,西向東,50
臺中市,東區,建成路521號前(雙向),臺中市政府警察局,第三分局,120.695874,24.134245,東西雙向,50
臺中市,東區,旱溪西路二段17巷口,臺中市政府警察局,第三分局,120.699338,24.150371,南向北,50
臺中市,東區,環中東路四段與樂業路口,臺中市政府警察局,第三分局,120.709023,24.135450,北向南,50
臺中市,南區,復興路一段129號前,臺中市政府警察局,第三分局,120.648324,24.111297,東向西,60
臺中市,南區,復興路一段與工學路口,臺中市政府警察局,第三分局,120.658228,24.117584,西向東,50
臺中市,南區,文心南路930號前,臺中市政府警察局,第三分局,120.660850,24.110210,北向南,60
臺中市,南區,南平路97號前(雙向),臺中市政府警察局,第三分局,120.663916,24.122270,東西雙向,50
臺中市,南區,國光路與南門路口,臺中市政府警察局,第三分局,120.679292,24.122376,北向南,50
臺中市,南區,忠明南路1265號前(雙向),臺中市政府警察局,第三分局,120.682291,24.119040,東西雙向,50
臺中市,西區,忠明南路口與民生路口,臺中市政府警察局,第一分局,120.657261,24.144334,北向南,50
臺中市,西區,忠明南路與忠明南路326巷口,臺中市政府警察局,第一分局,120.657276,24.137489,南北雙向,50
臺中市,西區,臺灣大道二段與忠明路口,臺中市政府警察局,第一分局,120.659705,24.156785,東向西,60
臺中市,西區,建國北路二段101號前,臺中市政府警察局,第一分局,120.664832,24.128488,東西雙向,50
臺中市,西區,五權路與英才路口,臺中市政府警察局,第一分局,120.666731,24.141207,東向西,50
臺中市,北區,進化北路與學士路口,臺中市政府警察局,第二分局,120.680977,24.163175,東向西,50
臺中市,北區,三民路三段與育才街口(往公園路方向),臺中市政府警察局,第二分局,120.684090,24.150147,北向南,50
臺中市,北區,崇德路一段與太原路二段路口,臺中市政府警察局,第二分局,120.685116,24.165043,北向南,50
臺中市,北區,三民路三段與崇德路一段路口(往五權路方向),臺中市政府警察局,第二分局,120.686238,24.154816,東向西,50
臺中市,北區,東光路270號前,臺中市政府警察局,第二分局,120.698550,24.152458,北向南,50
臺中市,西屯區,福科路617號前往福林路方向中央分隔島(雙向),臺中市政府警察局,第六分局,120.363596,24.112203,西向東,50
臺中市,西屯區,東大路一段450號前往西屯路三段方向,臺中市政府警察局,第六分局,120.363596,24.113662,北向南,50
臺中市,西屯區,都會園路(往西屯路距都會公園1.35公里),臺中市政府警察局,第六分局,120.594749,24.196201,北向南,50
臺中市,西屯區,臺灣大道四段2088號前(往市區),臺中市政府警察局,第六分局,120.596694,24.182157,西向東,50
臺中市,西屯區,臺灣大道四段近東大路一段(側門慢車道),臺中市政府警察局,第六分局,120.600228,24.182937,西向東,40
臺中市,西屯區,台灣大道四段與東大路一段路口(往市區),臺中市政府警察局,第六分局,120.602720,24.182937,西向東,50
臺中市,西屯區,中部科學工業園區科園路段威山複材科技工業股份有限公司,保安警察第二總隊,保二第三大隊,120.606619,24.202883,,
臺中市,西屯區,西屯路三段261號前,臺中市政府警察局,第六分局,120.613113,24.190093,西向東,50
臺中市,西屯區,安和路1號前,臺中市政府警察局,第六分局,120.617180,24.161130,北向南,50
臺中市,西屯區,臺灣大道四段與中工三路口,臺中市政府警察局,第六分局,120.619837,24.181043,西向東,50
臺中市,西屯區,安和路99-38號前,臺中市政府警察局,第六分局,120.621162,24.171978,南向北,50
臺中市,西屯區,福雅路與西林巷口,臺中市政府警察局,第六分局,120.627693,24.201611,北向南,50
臺中市,西屯區,環中路三段(龍洋巷50-15號前雙向),臺中市政府警察局,第六分局,120.630821,24.167393,南北雙向,60
臺中市,西屯區,市政路123號前,臺中市政府警察局,第六分局,120.639695,24.158053,西向東,60
臺中市,西屯區,台灣大道三段與河南路三段路口(往市區),臺中市政府警察局,第六分局,120.640725,24.164878,西向東,60
臺中市,西屯區,環中路二段766號(雙向),臺中市政府警察局,第六分局,120.642381,24.193290,南向北,60
臺中市,西屯區,中彰快速道路12.7公里(往烏日方向),臺中市政府警察局,第六分局,120.644773,24.194983,東向西,80
臺中市,西屯區,中彰快速道路13.3公里（往中清路方向）,臺中市政府警察局,第六分局,120.650086,24.197181,西向東,80
臺中市,西屯區,中清路二段與環中路一段路口(往大雅區),臺中市政府警察局,第六分局,120.655634,24.199574,北向南,50
臺中市,西屯區,河南路二段與長安路二段路口,臺中市政府警察局,第六分局,120.660865,24.172448,北向南,50
臺中市,南屯區,向上路五段往龍井區方向(距五權西路1.2K處),臺中市政府警察局,第四分局,120.352287,24.096797,東向西,60
臺中市,南屯區,向上路五段(往市區距離精科路360公尺),臺中市政府警察局,第四分局,120.607964,24.151021,西向東,60
臺中市,南屯區,中彰快速道路4.8公里(雙向),臺中市政府警察局,第四分局,120.609224,24.129442,南北雙向,80
臺中市,南屯區,永春南路148號前,臺中市政府警察局,第四分局,120.609224,24.138644,西向東,50
臺中市,南屯區,五權西路三段225-7號前,臺中市政府警察局,第四分局,120.611018,24.154502,東西雙向,50
臺中市,南屯區,環中路三段與五權西路二段口,臺中市政府警察局,第四分局,120.619802,24.149775,北向南,40
臺中市,南屯區,環中路四段56-8號,臺中市政府警察局,第四分局,120.623106,24.147081,南北雙向,60
臺中市,南屯區,環中路四段與向上路三段路口,臺中市政府警察局,第四分局,120.623467,24.144829,南向北,40
臺中市,南屯區,向上路三段418號前,臺中市政府警察局,第四分局,120.627274,24.145007,西向東,50
臺中市,南屯區,環中路四段643號前,臺中市政府警察局,第四分局,120.629584,24.127438,北向南,60
臺中市,南屯區,五權西路二段1001號前,臺中市政府警察局,第四分局,120.630354,24.146949,東西雙向,50
臺中市,南屯區,永春東路1387號前,臺中市政府警察局,第四分局,120.630722,24.138207,西向東,50
臺中市,南屯區,公益路二段與文心路一段路口,臺中市政府警察局,第四分局,120.647317,24.150769,東向西,50
臺中市,北屯區,東山路二段151-3號前(往市區),臺中市政府警察局,第五分局,120.459293,24.119375,東向西,50
臺中市,北屯區,松竹路三段與后庄路口,臺中市政府警察局,第五分局,120.671254,24.192784,東向西,50
臺中市,北屯區,四平路仁愛公園旁,臺中市政府警察局,第五分局,120.674286,24.181341,西向東,50
臺中市,北屯區,崇德路二段與文心路四段路口,臺中市政府警察局,第五分局,120.685396,24.172079,北向南,50
臺中市,北屯區,崇德路三段938號前(雙向),臺中市政府警察局,第五分局,120.686917,24.203174,南北雙向,60
臺中市,北屯區,太原路三段與旱溪東路三段路口,臺中市政府警察局,第五分局,120.705786,24.164844,東向西,60
臺中市,北屯區,中彰快速道路19.4公里(往太平方向),臺中市政府警察局,第五分局,120.709779,24.200466,西向東,80
臺中市,北屯區,中彰快速道路19.4公里(往烏日方向),臺中市政府警察局,第五分局,120.709807,24.200074,東向西,80
臺中市,北屯區,旱溪東路三段48號前,臺中市政府警察局,第五分局,120.710795,24.176480,北向南,50
臺中市,北屯區,太原路三段1027-1號前,臺中市政府警察局,第五分局,120.717799,24.163706,西向東,60
臺中市,北屯區,軍功路二段571號前,臺中市政府警察局,第五分局,120.718021,24.188053,北向南,50
臺中市,北屯區,環中東路三段與太原路三段路口(下閘道及慢車道往太平),臺中市政府警察局,第五分局,120.719213,24.163175,北向南,40
臺中市,北屯區,松竹路一段360號前往環中東路一段方向,臺中市政府警察局,第五分局,120.724863,24.180911,東向西,50
臺中市,北屯區,部子路456號前,臺中市政府警察局,第五分局,120.734027,24.167813,南向北,50
臺中市,北屯區,祥順路二段398號前(雙向),臺中市政府警察局,第五分局,120.735170,24.176339,北向南,50
臺中市,北屯區,部子路與部子路700巷口,臺中市政府警察局,第五分局,120.736696,24.175190,東向西,50
臺中市,豐原區,國豐路一段501號(拖吊場前),臺中市政府警察局,豐原分局,120.427887,24.166284,西向東,50
臺中市,豐原區,豐原大道六段516號前,臺中市政府警察局,豐原分局,120.435419,24.158751,東向西,60
臺中市,豐原區,豐原大道四段近379號前,臺中市政府警察局,豐原分局,120.441844,24.148461,東向西,60
臺中市,豐原區,豐原大道八段(愛心紀念公園前),臺中市政府警察局,豐原分局,120.706631,24.256583,北向南,60
臺中市,豐原區,圓環北路二段與大順街口,臺中市政府警察局,豐原分局,120.723553,24.260451,西向東,50
臺中市,豐原區,豐勢路二段與豐年路口,臺中市政府警察局,豐原分局,120.736851,24.261272,北向南,50
臺中市,豐原區,豐勢路二段與萬順一街口,臺中市政府警察局,豐原分局,120.759612,24.277003,北向南,50
臺中市,東勢區,東關路與和興巷口,臺中市政府警察局,東勢分局,120.502313,24.133259,南向北,60
臺中市,東勢區,東蘭路雙向(台3線153.2k),臺中市政府警察局,東勢分局,120.799971,24.291922,北向南,60
臺中市,東勢區,東關路與新盛街口,臺中市政府警察局,東勢分局,120.834561,24.237773,西向東,60
臺中市,大甲區,中山路一段近東安路處,臺中市政府警察局,豐原分局,120.364655,24.195085,南向北,70
臺中市,大甲區,經國路與光明路口,臺中市政府警察局,大甲分局,120.616963,24.347183,北向南,60
臺中市,大甲區,經國路與育英路口,臺中市政府警察局,大甲分局,120.618761,24.353781,南向北,60
臺中市,大甲區,經國路與和平路口,臺中市政府警察局,大甲分局,120.622803,24.356601,北向南,60
臺中市,大甲區,中山路二段與幼獅路口,臺中市政府警察局,大甲分局,120.643621,24.408593,南向北,70
臺中市,大甲區,經國路與通天路口,臺中市政府警察局,大甲分局,120.651501,24.382695,北向南,70
臺中市,清水區,臨港路六段與港埠路五段路口,臺中市政府警察局,清水分局,120.552481,24.294133,北向南,70
臺中市,清水區,臨港路六段與高美路口,臺中市政府警察局,清水分局,120.564021,24.296702,南向北,70
臺中市,清水區,中清路九段91巷口,臺中市政府警察局,清水分局,120.564812,24.271301,東向西,60
臺中市,清水區,中華路與鰲峰路口,臺中市政府警察局,清水分局,120.566571,24.267813,南向北,70
臺中市,清水區,中華路與高美路口,臺中市政府警察局,清水分局,120.575530,24.278491,北向南,70
臺中市,清水區,臨港路七段(台17線近1K處),臺中市政府警察局,清水分局,120.586819,24.303308,東向西,70
臺中市,沙鹿區,臺灣大道七段466號前,臺中市政府警察局,清水分局,120.343439,24.139594,東向西,60
臺中市,沙鹿區,臺灣大道八段與文明街口,臺中市政府警察局,清水分局,120.557220,24.242643,東向西,70
臺中市,沙鹿區,向上路七段近321號(雙向),臺中市政府警察局,清水分局,120.557743,24.210121,東向西,60
臺中市,沙鹿區,臺灣大道七段與七賢路口,臺中市政府警察局,清水分局,120.567671,24.238121,西向東,60
臺中市,沙鹿區,向上路六段752號前雙向(龍井交流道),臺中市政府警察局,清水分局,120.569944,24.201292,東向西,50
臺中市,沙鹿區,三民路與七賢路口,臺中市政府警察局,清水分局,120.570951,24.241900,北向南,60
臺中市,沙鹿區,中清路七段(台10線5.5k),臺中市政府警察局,清水分局,120.574881,24.253682,西向東,60
臺中市,沙鹿區,臺灣大道七段(台12線6.4k)(靜宜大學),臺中市政府警察局,清水分局,120.579708,24.226385,東向西,60
臺中市,沙鹿區,臺灣大道六段(台12線7.4k)(弘光大學),臺中市政府警察局,清水分局,120.580823,24.216763,東向西,60
臺中市,沙鹿區,中清路七段(台10線6.7k),臺中市政府警察局,清水分局,120.584710,24.250250,東向西,60
臺中市,沙鹿區,中清路六段(台10線9.2k)(清泉所),臺中市政府警察局,清水分局,120.609230,24.246230,東向西,70
臺中市,梧棲區,中二路3k+587處,臺中港務警察總隊,,120.520820,24.252245,北往南,60
臺中市,梧棲區,中二路3k+587處,臺中港務警察總隊,,120.520820,24.252245,南往北,60
臺中市,梧棲區,中二路與臺灣大道10段路口,臺中港務警察總隊,,120.522587,24.255107,東往西,50
臺中市,梧棲區,港埠路二段與大智路二段路口,臺中市政府警察局,清水分局,120.539424,24.258166,北向南,60
臺中市,梧棲區,中華路一段雙向(台1線168.4k),臺中市政府警察局,清水分局,120.548323,24.236661,北向南,70
臺中市,后里區,三豐路三段(正隆紙廠)前,臺中市政府警察局,大甲分局,120.722551,24.284721,北向南,60
臺中市,后里區,三豐路三段與枋寮路口,臺中市政府警察局,大甲分局,120.723520,24.291403,北向南,60
臺中市,后里區,三豐路五段(中社花市前)雙向,臺中市政府警察局,大甲分局,120.730800,24.335120,北向南,60
臺中市,神岡區,民生路122號前(雙向)(臺10線17.4k),臺中市政府警察局,豐原分局,120.675002,24.240812,東向西,60
臺中市,神岡區,崇德路3之1號前(雙向),臺中市政府警察局,豐原分局,120.690653,24.229821,南向北,60
臺中市,潭子區,中山路一段261號前,臺中市政府警察局,豐原分局,120.421734,24.118753,北向南,60
臺中市,潭子區,崇德路四段與雅潭路口,臺中市政府警察局,豐原分局,120.688341,24.215760,南向北,60
臺中市,潭子區,中山路二段與潭子街一段路口,臺中市政府警察局,豐原分局,120.705385,24.209873,北向南,60
臺中市,潭子區,中山路三段與祥和路口,臺中市政府警察局,豐原分局,120.708612,24.229410,南向北,60
臺中市,潭子區,豐興路二段(中89線4.2k),臺中市政府警察局,豐原分局,120.721739,24.209266,北向南,50
臺中市,潭子區,豐興路二段(中89線3.96k北上),臺中市政府警察局,豐原分局,120.722290,24.210612,南向北,50
臺中市,大雅區,中部科學工業園區中科路近科雅東路口,保安警察第二總隊,保二第三大隊,120.621629,24.207551,,
臺中市,大雅區,中科路1088號前往永和路方向快慢分隔島,臺中市政府警察局,豐原分局,120.632143,24.205312,東往西,60
臺中市,大雅區,雅潭路三段與雅潭路三段400巷口(橋上),臺中市政府警察局,豐原分局,120.673855,24.216200,東向西,50
臺中市,石岡區,明德路與大勇街口,臺中市政府警察局,東勢分局,120.773121,24.275591,北向南,70
臺中市,石岡區,豐勢路與廣華街口,臺中市政府警察局,東勢分局,120.782723,24.275433,北向南,70
臺中市,石岡區,豐勢路與萬仙街口,臺中市政府警察局,東勢分局,120.791478,24.272851,西向東,70
臺中市,大安區,西濱公路(台61線)與南安路口,臺中市政府警察局,大甲分局,120.578101,24.349533,南向北,40
臺中市,大安區,西濱公路(台61線)與大安港路口,臺中市政府警察局,大甲分局,120.591393,24.377661,北向南,40
臺中市,烏日區,環中路八段599號前(雙向),臺中市政府警察局,烏日分局,120.388475,24.046570,北向南,60
臺中市,烏日區,環河路一段702號(雙向),臺中市政府警察局,烏日分局,120.394291,24.052209,東向西,60
臺中市,烏日區,中山路三段917號前,臺中市政府警察局,烏日分局,120.595719,24.112220,西向東,70
臺中市,烏日區,中山路三段與學田路口,臺中市政府警察局,烏日分局,120.607533,24.108591,北向南,70
臺中市,烏日區,中山路三段與高鐵東路口(往市區方向),臺中市政府警察局,烏日分局,120.614085,24.106776,西向東,70
臺中市,烏日區,環河路二段(近春源鋼鐵公司)雙向,臺中市政府警察局,烏日分局,120.637001,24.094531,西向東,60
臺中市,烏日區,環中路八段與褔泰街口,臺中市政府警察局,烏日分局,120.647893,24.086382,北向南,60
臺中市,烏日區,環中路六段與光明路口,臺中市政府警察局,烏日分局,120.649800,24.106890,北向南,50
臺中市,烏日區,環中路七段與勤農巷口,臺中市政府警察局,烏日分局,120.652133,24.104821,南向北,50
臺中市,大肚區,沙田路三段889巷路口,臺中市政府警察局,烏日分局,120.542141,24.169611,北向南,70
臺中市,大肚區,自由路與仁德路口,臺中市政府警察局,烏日分局,120.549043,24.146513,南向北,70
臺中市,龍井區,向上路八段與193巷口處,臺中市政府警察局,烏日分局,120.322592,24.131696,東向西,60
臺中市,龍井區,中華路二段480號前,臺中市政府警察局,烏日分局,120.323891,24.125138,南向北,70
臺中市,龍井區,臺灣大道六段與水裡社路口處(台12線10.1K),臺中市政府警察局,烏日分局,120.326167,24.107246,東向西,70
臺中市,龍井區,港埠路與臨港東路一段路口,臺中市政府警察局,烏日分局,120.513816,24.198784,北向南,60
臺中市,龍井區,中華路一段與茄投路口,臺中市政府警察局,烏日分局,120.543062,24.176163,北向南,70
臺中市,龍井區,中興路東端路口,臺中市政府警察局,烏日分局,120.578716,24.187831,南向北,60
臺中市,龍井區,向上路六段(中136線10.2k),臺中市政府警察局,烏日分局,120.579162,24.176645,東向西,60
臺中市,龍井區,中華路一段(台1線175.5k),臺中市政府警察局,烏日分局,120.580002,24.192766,北向南,70
臺中市,霧峰區,中投公路11.4K(南下),臺中市政府警察局,霧峰分局,120.409255,24.022530,北向南,70
臺中市,霧峰區,中投公路11.5K(北上),臺中市政府警察局,霧峰分局,120.409865,24.022096,南向北,70
臺中市,霧峰區,中正路569-9號前,臺中市政府警察局,霧峰分局,120.616200,24.029015,南向北,70
臺中市,霧峰區,中正路與吉峰路口(往大里方向),臺中市政府警察局,霧峰分局,120.699960,24.075670,南向北,50
臺中市,太平區,中彰快速道路東平路匝道口,臺中市政府警察局,太平分局,120.709768,24.134700,南向北,40
臺中市,太平區,中彰快速道路27.5公里(往大里方向),臺中市政府警察局,太平分局,120.709876,24.136902,北向南,80
臺中市,太平區,環中東路四段與十甲路口,臺中市政府警察局,太平分局,120.712039,24.144460,南向北,50
臺中市,太平區,中彰快速道路25.9公里(往潭子方向),臺中市政府警察局,太平分局,120.714855,24.149866,南向北,80
臺中市,太平區,祥順路一段(新坪里活動中心前),臺中市政府警察局,太平分局,120.725904,24.156184,北向南,50
臺中市,太平區,環中東路三段(育才路與樹孝路67巷間),臺中市政府警察局,太平分局,120.767850,24.154286,北向南,50
臺中市,大里區,中投公路4.5k(南下),臺中市政府警察局,霧峰分局,120.664180,24.089663,北向南,70
臺中市,大里區,中投公路4.4k(北上),臺中市政府警察局,霧峰分局,120.664508,24.090667,北向南,70
臺中市,大里區,文心南路與福德路口,臺中市政府警察局,霧峰分局,120.665291,24.106303,西向東,60
臺中市,大里區,環河路一段188號(中來水泥廠前),臺中市政府警察局,霧峰分局,120.677419,24.087034,東向西,60
臺中市,大里區,國光路二段505號前,臺中市政府警察局,霧峰分局,120.679093,24.111510,北向南,50
臺中市,大里區,國光路一段72號前,臺中市政府警察局,霧峰分局,120.684341,24.097178,南向北,50
臺中市,大里區,德芳南路口與環中東路六段路口,臺中市政府警察局,霧峰分局,120.691869,24.101056,西向東,60
臺南市,新營區,長榮路與三興街口172線20.05公里(東向),臺南市政府警察局,新營分局,120.300354,23.319435,東向,
臺南市,新營區,台1線290.3公里與東山路口(北向),臺南市政府警察局,新營分局,120.325731,23.308906,北向,
臺南市,白河區,臺1線281.7公里處後壁陸橋北端(雙向),臺南市政府警察局,白河分局,120.364890,23.374134,雙向,70
臺南市,白河區,臺1線279.9公里與南91線路口(北向),臺南市政府警察局,白河分局,120.375340,23.388468,北向,70
臺南市,東山區,曾文水庫道路7K東向,保七總隊,保七第二大隊,120.310000,23.140000,西往東方向,40
臺南市,東山區,曾文水庫道路8.1K西向,保七總隊,保七第二大隊,120.310000,23.140000,東往西方向,40
臺南市,東山區,曾文水庫道路7.5K東向(雙向),保七總隊,保七第二大隊,120.310000,23.140000,東往西、西往東方向,40
臺南市,麻豆區,176線16.9公里麻豆口路口(西向),臺南市政府警察局,麻豆分局,120.219990,23.176996,西向,60
臺南市,麻豆區,台19甲17.2公里與新生南路路口(北向),臺南市政府警察局,麻豆分局,120.254028,23.176693,北向,50
臺南市,六甲區,台1線297.3公里與174線路口(南向),臺南市政府警察局,麻豆分局,120.312449,23.253684,南向,70
臺南市,六甲區,台1線298.8公里與174線路口(北向),臺南市政府警察局,麻豆分局,120.315615,23.240039,北向,
臺南市,官田區,台1線302公里北向,臺南市政府警察局,麻豆分局,120.307320,23.214055,北向,50
臺南市,學甲區,臺19線117.5公里大安里大灣路口(南向),臺南市政府警察局,學甲分局,120.185669,23.211152,南向,50
臺南市,西港區,臺19線126公里與南45線往後營路口(北向),臺南市政府警察局,佳里分局,120.192509,23.142835,北向,70
臺南市,七股區,臺17線152.6公里大潭寮路口(北向),臺南市政府警察局,佳里分局,120.124986,23.189188,北向,70
臺南市,七股區,臺17線162.05公里與南38線路口(南向),臺南市政府警察局,佳里分局,120.131672,23.104435,南向,70
臺南市,七股區,臺17線153.95公里處(雙向),臺南市政府警察局,佳里分局,120.133708,23.175345,雙向,70
臺南市,七股區,臺17線155.6公里篤加國小前路口(南向),臺南市政府警察局,佳里分局,120.134610,23.159895,南向,70
臺南市,北門區,台61線282.1公里(南向),臺南市政府警察局,學甲分局,120.129722,23.294575,南向,90
臺南市,新化區,南科七路與三抱竹路口,保二總隊,保二第一大隊,22.107788,120.268775,,
臺南市,新化區,環西路二段與南科七路口,保二總隊,保二第一大隊,22.109205,120.272575,,
臺南市,新化區,新港社大道(橋上雙向),保二總隊,保二第一大隊,23.085742,120.281522,,
臺南市,新化區,南科南路與環西路一段路口,保二總隊,保二第一大隊,23.090330,120.282494,,
臺南市,新化區,南科北路與南科七路口,保二總隊,保二第一大隊,23.104249,120.289627,,
臺南市,新化區,西拉雅大道與大順六路口,保二總隊,保二第一大隊,23.104249,120.289627,,
臺南市,新化區,南科三路與道爺路口,保二總隊,保二第一大隊,23.119713,120.277355,,
臺南市,新化區,南科北路與南科九路口,保二總隊,保二第一大隊,23.119713,120.277355,,
臺南市,新化區,環東路二段與南科九路口,保二總隊,保二第一大隊,23.119713,120.277355,,
臺南市,新化區,南科七路與環東路二段路口,保二總隊,保二第一大隊,23.119713,120.277355,,
臺南市,新化區,西拉雅大道與南科南北路口,保二總隊,保二第一大隊,23.119713,120.277355,,
臺南市,新化區,西拉雅大道與環東路一段路口,保二總隊,保二第一大隊,23.119713,120.277355,,
臺南市,新化區,臺19甲線33.5公里(雙向),臺南市政府警察局,新化分局,120.298651,23.055922,雙向,70
臺南市,新化區,臺20線15.9公里國8道路口(南向),臺南市政府警察局,新化分局,120.332012,23.061538,南向,60
臺南市,善化區,台19線132.8公里中崙段(北向),臺南市政府警察局,善化分局,120.210498,23.084491,北向,50
臺南市,善化區,178線7.9公里與南134線路口東向,臺南市政府警察局,善化分局,120.229238,23.094667,東向,50
臺南市,善化區,環西路二段與台積電14廠西3哨前,保二總隊,保二第一大隊,120.271366,23.114693,,
臺南市,善化區,臺84線37.2公里處走馬瀨隧道口(雙向),臺南市政府警察局,善化分局,120.425454,23.142551,雙向,90
臺南市,玉井區,臺20線與台3線中華路口(東向),臺南市政府警察局,玉井分局,120.465267,23.120522,東向,50
臺南市,玉井區,臺3線369.4公里(北向),臺南市政府警察局,玉井分局,120.488530,23.155446,北向,70
臺南市,楠西區,曾文水庫道路5.4K(雙向),保七總隊,保七第二大隊,23.130000,120.300000,東往西、西往東方向,40
臺南市,楠西區,曾文水庫道路1.2公里至2.9公里(雙向),保七總隊,保七第二大隊,120.290000,23.120000,東往西、西往東方向,40
臺南市,楠西區,曾文水庫道路3.2公里至4.9公里(雙向),保七總隊,保七第二大隊,120.290000,23.130000,東往西、西往東方向,40
臺南市,楠西區,曾文水庫道路6K東向,保七總隊,保七第二大隊,120.300000,23.140000,西往東方向,40
臺南市,仁德區,文賢路台一線341.4K雙向,臺南市政府警察局,歸仁分局,120.220280,22.943890,,
臺南市,仁德區,台一線342.5k台86線匝道路口南向(固定式),臺南市政府警察局,歸仁分局,120.220814,22.930097,,
臺南市,仁德區,臺1線344.15公里與二行一路路口(北向),臺南市政府警察局,歸仁分局,120.225495,22.920004,北向,50
臺南市,仁德區,台1線342.5公里台86線路口(南向),臺南市政府警察局,歸仁分局,120.477500,23.111110,,
臺南市,歸仁區,台39線10公里(北向),臺南市政府警察局,歸仁分局,120.275263,22.947570,北向,70
臺南市,歸仁區,臺39線2.6公里處,臺南市政府警察局,歸仁分局,120.287274,23.011648,南向,70
臺南市,歸仁區,182線12.1公里忠孝南北路口(南向),臺南市政府警察局,歸仁分局,120.303053,22.965597,南向,50
臺南市,關廟區,臺19甲線41公里(雙向),臺南市政府警察局,歸仁分局,120.308202,22.996869,雙向,60
臺南市,關廟區,臺86線17.85公里(雙向),臺南市政府警察局,歸仁分局,120.313239,22.971280,雙向,70
臺南市,東區,大同路-林森路口(西向),臺南市政府警察局,第一分局,120.212299,22.980794,西向,50
臺南市,東區,小東路與成功大學成功校區校門路口東向,臺南市政府警察局,第一分局,120.220146,23.000835,東向,60
臺南市,東區,林森路後甲國中前-近東和路口(南向),臺南市政府警察局,第一分局,120.224416,22.998150,南向,50
臺南市,東區,中華東路-凱旋路口(南向),臺南市政府警察局,第一分局,120.233941,22.992639,南向,60
臺南市,東區,中華東路-東平口(北向),臺南市政府警察局,第一分局,120.234240,22.994544,北向,60
臺南市,東區,崇善路-德東街口(南向),臺南市政府警察局,第一分局,120.236159,22.962045,南向,40
臺南市,南區,安平港路聯外道路-鯤鯓路127之5號前(雙向),臺南市政府警察局,第六分局,120.169584,22.958733,雙向,50
臺南市,南區,安平港聯外道路台電高分鯤鯓54右38號電桿(北向),臺南市政府警察局,第六分局,120.174101,22.947441,北向,60
臺南市,南區,濱南路南濱高幹100號海口宮前(雙向),臺南市政府警察局,第六分局,120.176641,22.930405,雙向,70
臺南市,南區,明興路-喜樹路151巷口(南向),臺南市政府警察局,第六分局,120.181495,22.941000,南向,50
臺南市,南區,濱南路-鯤鯓路口(北向),臺南市政府警察局,第六分局,120.183879,22.958800,北向,60
臺南市,南區,中華西路-新和路口(北向),臺南市政府警察局,第六分局,120.183894,22.967249,北向,60
臺南市,南區,中華西路1段75號(南向),臺南市政府警察局,第六分局,120.184128,22.975246,南向,60
臺南市,南區,明興路-喜樹路口(北向),臺南市政府警察局,第六分局,120.184431,22.950559,北向,50
臺南市,南區,明興路-近南和路口(北向),臺南市政府警察局,第六分局,120.189153,22.961213,北向,50
臺南市,南區,金華路-永華路口(北向),臺南市政府警察局,第六分局,120.192083,22.987970,北向,50
臺南市,南區,中華南路-德興路口(西向),臺南市政府警察局,第六分局,120.192530,22.961940,西向,60
臺南市,南區,永成路2段369號往南70公尺(雙向),臺南市政府警察局,第六分局,120.195491,22.945979,雙向,60
臺南市,南區,中華南路、西門路口(北向),臺南市政府警察局,第六分局,120.200156,22.964825,雙向,
臺南市,南區,中華南路-國民路口(南向),臺南市政府警察局,第六分局,120.209947,22.968901,南向,50
臺南市,北區,文賢路-文成街口(北向),臺南市政府警察局,第五分局,120.193915,23.012195,北向,40
臺南市,北區,中華北路二段80巷口(北向),臺南市政府警察局,第五分局,120.196981,23.019334,雙向,60
臺南市,北區,海安路－文成路口(南向),臺南市政府警察局,第五分局,120.200385,23.012684,南向,50
臺南市,北區,中華北路-北安橋下(南向),臺南市政府警察局,第五分局,120.206019,23.021850,南向,60
臺南市,北區,公園路-公園南路口(南向),臺南市政府警察局,第五分局,120.208742,23.000978,南向,40
臺南市,北區,成功路近火車站圓環(北向),臺南市政府警察局,第五分局,120.211069,22.997290,北向,40
臺南市,北區,公園路-長榮路口(南向),臺南市政府警察局,第五分局,120.212031,23.013504,南向,40
臺南市,北區,北門路-小東路口(南向),臺南市政府警察局,第五分局,120.212945,23.001533,南向,50
臺南市,北區,長榮路-東豐路口(西向),臺南市政府警察局,第五分局,120.222480,23.002623,西向,50
臺南市,安南區,四草大道與大眾街口(南向),臺南市政府警察局,第三分局,120.132472,23.018548,南向,70
臺南市,安南區,安明路-安中路口(南向),臺南市政府警察局,第三分局,120.134014,23.061041,南向,70
臺南市,安南區,安明路4段1127號-近中油大銘昌加油站(雙向),臺南市政府警察局,第三分局,120.135061,23.074215,雙向,70
臺南市,安南區,臺南市安南區安明路近北汕尾路口(雙向),臺南市政府警察局,第三分局,120.145708,23.049866,雙向,70
臺南市,安南區,安吉路-安中路口(北向),臺南市政府警察局,第三分局,120.188399,23.045891,北向,60
臺南市,安南區,安吉路路燈56-3112-33號近本原街口(雙向),臺南市政府警察局,第三分局,120.189613,23.052488,雙向,60
臺南市,安南區,安吉路3段與公學路1段262巷往南450公尺處(北向),臺南市政府警察局,第三分局,120.193631,23.077350,北向,60
臺南市,安南區,安吉路3段-公學路1段262巷前(南向),臺南市政府警察局,第三分局,120.193749,23.077922,南向,60
臺南市,安南區,北安路三段３９６巷前(北向),臺南市政府警察局,第三分局,120.208041,23.046125,雙向,60
臺南市,安南區,北安路4段548巷近長和街口(雙向),臺南市政府警察局,第三分局,120.214765,23.067614,雙向,60
臺南市,安南區,安明路-近大港觀海橋(雙向),臺南市政府警察局,第三分局,121.569170,25.057780,雙向,70
臺南市,中西區,中山路-火車站圓環(北向),臺南市政府警察局,第二分局,120.211614,22.996802,北向,40
桃園市,桃園區,春日路561號(往市區方向),桃園市政府警察局,桃園分局,121.320648,25.005973,,
桃園市,桃園區,成功路三段235號前,桃園市政府警察局,桃園分局,121.325111,24.993293,,
桃園市,中壢區,中正路四段353號,桃園市政府警察局,中壢分局,121.174404,24.990447,,
桃園市,中壢區,新生路三段192號前(往大園方向),桃園市政府警察局,中壢分局,121.221390,24.992780,,
桃園市,中壢區,中園路421號,桃園市政府警察局,中壢分局,121.229346,25.002476,,
桃園市,中壢區,普忠路770巷路口前,桃園市政府警察局,中壢分局,121.251152,24.952523,,
桃園市,中壢區,台31線12.5K(往北),桃園市政府警察局,中壢分局,121.320648,25.005973,,
桃園市,中壢區,台31線13.3K(往南),桃園市政府警察局,中壢分局,121.320648,25.005973,,
桃園市,中壢區,中園路二段346號前,桃園市政府警察局,中壢分局,121.320648,25.005973,,
桃園市,中壢區,中山東路二段371號前(往市區方向),桃園市政府警察局,中壢分局,121.320648,25.005973,,
桃園市,大溪區,仁和路二段517巷口,桃園市政府警察局,大溪分局,121.259541,24.911953,,
桃園市,大溪區,康莊路五段6號前,桃園市政府警察局,大溪分局,121.266237,24.826963,,
桃園市,大溪區,瑞安路一段(台4線29.5K)崁津橋前,桃園市政府警察局,大溪分局,121.276124,24.876353,,
桃園市,大溪區,埔頂路二段256號前,桃園市政府警察局,大溪分局,121.280980,24.913181,,
桃園市,蘆竹區,文中路一段265巷口前,桃園市政府警察局,蘆竹分局,121.262248,24.989257,,
桃園市,蘆竹區,富國路二段360號前(往桃園方向),桃園市政府警察局,蘆竹分局,121.269364,25.037063,,
桃園市,蘆竹區,南青路3K+150往南,桃園市政府警察局,蘆竹分局,121.274879,25.058175,,
桃園市,蘆竹區,中正北路茄苳橋(往竹圍方向),桃園市政府警察局,蘆竹分局,121.278033,25.043498,,
桃園市,蘆竹區,山林路二段655號前,桃園市政府警察局,蘆竹分局,121.308091,25.081982,,
桃園市,蘆竹區,仁愛路三段高鐵前(往蘆竹方向),桃園市政府警察局,蘆竹分局,121.312966,25.055240,,
桃園市,大園區,中正東路一段373號前(往大園),桃園市政府警察局,大園分局,121.223644,25.045203,,
桃園市,大園區,中正東路一段373號對面,桃園市政府警察局,大園分局,121.223890,25.043330,,
桃園市,大園區,航站北路(出場道)第24號燈桿旁,航空警察局,航警局保安警察大隊,121.228795,25.076088,,
桃園市,大園區,航站南路(入場道)第29號燈桿旁,航空警察局,航警局保安警察大隊,121.230670,25.074716,,
桃園市,龜山區,忠義路一段1196-15號前,桃園市政府警察局,龜山分局,121.350946,25.021684,,
桃園市,龜山區,振興路1169號前(往龜山方向),桃園市政府警察局,龜山分局,121.364440,25.022220,,
桃園市,龜山區,復興三路500號對面,桃園市政府警察局,龜山分局,121.371181,25.040699,,
桃園市,龜山區,華亞三路近華亞二路前,桃園市政府警察局,龜山分局,121.376632,25.042246,,
桃園市,龜山區,華亞三路近文化二路口,桃園市政府警察局,龜山分局,121.377532,25.045540,,
桃園市,龜山區,萬壽路一段1247巷口(往南),桃園市政府警察局,龜山分局,121.378330,25.011390,,
桃園市,龜山區,東萬壽路622號前(往北),桃園市政府警察局,龜山分局,121.382382,25.009551,,
桃園市,龜山區,東萬壽路與龍校街121巷6弄口,桃園市政府警察局,龜山分局,121.389440,25.009440,,
桃園市,龜山區,萬壽路一段962號前往北,桃園市政府警察局,龜山分局,121.393060,25.016670,,
桃園市,八德區,介壽路二段551號前,桃園市政府警察局,八德分局,121.297495,24.943515,,
桃園市,八德區,和強路127號前,桃園市政府警察局,八德分局,121.318432,24.960634,,
桃園市,龍潭區,福源路256號對面,桃園市政府警察局,龍潭分局,121.184049,24.826041,,
桃園市,龍潭區,中正路三坑下坡路段(往石門水庫),桃園市政府警察局,龍潭分局,121.218093,24.861323,,
桃園市,龍潭區,中正路三林段330號(往市區),桃園市政府警察局,龍潭分局,121.229263,24.849716,,
桃園市,龍潭區,龍源路大平段290號(往大溪),桃園市政府警察局,龍潭分局,121.238658,24.826025,,
桃園市,平鎮區,民族路雙連二段217號對面,桃園市政府警察局,平鎮分局,121.187500,24.960280,,
桃園市,平鎮區,陸橋南路與平德路口前,桃園市政府警察局,平鎮分局,121.191816,24.926606,,
桃園市,平鎮區,延平路三段260巷口前,桃園市政府警察局,平鎮分局,121.201644,24.937542,,
桃園市,平鎮區,中豐路山頂段531號前,桃園市政府警察局,平鎮分局,121.210830,24.898060,,
桃園市,平鎮區,福龍路一段550巷(往龍潭方向),桃園市政府警察局,平鎮分局,121.225996,24.896787,,
桃園市,新屋區,中山西路三段62號前,桃園市政府警察局,楊梅分局,121.044835,24.987537,,
桃園市,新屋區,中山東路一段458號前,桃園市政府警察局,楊梅分局,121.125165,24.972265,,
桃園市,觀音區,濱海路保生段277號前(往南),桃園市政府警察局,大園分局,121.052455,25.016968,,
連江縣,南竿鄉,介壽村47-10號前,連江縣警察局,南竿警察所,119.951371,26.160198,順向(往介壽村方向),30
連江縣,北竿鄉,板里村46號前,連江縣警察局,北竿警察所,119.974153,26.216692,順向(往白沙方向),30
連江縣,北竿鄉,塘岐村168號前,連江縣警察局,北竿警察所,119.997628,26.223022,順向(往機場方向),30
金門縣,金城鎮,西海路宏玻陶瓷廠路段,金門縣警察局,金城分局,118.304775,24.414853,東西雙向,50
金門縣,金沙鎮,環島北路斗門路段,金門縣警察局,金湖分局,118.391810,24.469949,東西雙向,60
金門縣,金沙鎮,環島北路警光會館路段,金門縣警察局,金湖分局,118.402452,24.481859,東西雙向,60
金門縣,金沙鎮,高陽路蔡厝路段,金門縣警察局,金湖分局,118.419554,24.476989,東西雙向,60
金門縣,金湖鎮,伯玉路前山門路段,金門縣警察局,金湖分局,118.365727,24.446011,東西雙向,70
金門縣,金湖鎮,環島南路環保公園路段,金門縣警察局,金湖分局,118.370319,24.441330,東西雙向,60
金門縣,金湖鎮,環島南路后園路段,金門縣警察局,金湖分局,118.403395,24.437878,東西雙向,50
金門縣,金湖鎮,黃海路陽明湖路段,金門縣警察局,金湖分局,118.431476,24.458809,南北雙向,60
金門縣,金寧鄉,慈湖路湖下路段,金門縣警察局,金城分局,118.309651,24.449041,南北雙向,50
金門縣,金寧鄉,環島南路后湖路段,金門縣警察局,金城分局,118.331800,24.416346,東西雙向,60
金門縣,金寧鄉,環島北路頂堡路口,金門縣警察局,金城分局,118.338370,24.449810,東西雙向,60
金門縣,金寧鄉,伯玉路前厝路口,金門縣警察局,金城分局,118.340612,24.441227,東西雙向,70
金門縣,金寧鄉,環島南路中心教練場路段,金門縣警察局,金城分局,118.342362,24.425800,東西雙向,60
金門縣,金寧鄉,桃園路雙乳山路段,金門縣警察局,金城分局,118.355654,24.436017,東西雙向,60
金門縣,金寧鄉,環島北路后盤山路段,金門縣警察局,金城分局,118.357931,24.453361,東西雙向,60
國道六號,,國道六號東向12.5公里,國道公路警察局,國道公路警七隊,120.779314,23.986180,,
國道一號,,國道一號南向315.5公里,國道公路警察局,國道公路警四隊,120.251739,23.082616,往南,110
國道一號,,國道一號北向334公里,國道公路警察局,國道公路警四隊,120.260136,22.918658,往北,110
國道一號,,國道一號南向340.2公里,國道公路警察局,國道公路警五隊,120.284681,22.867977,往南,110
國道一號,,國道一號南向276.2公里,國道公路警察局,國道公路警四隊,120.355249,23.397736,往南,110
國道一號,,國道一號南向260.5公里,國道公路警察局,國道公路警四隊,120.405818,23.527652,往南,110
國道一號,,國道一號北向224.9公里,國道公路警察局,國道公路警三隊,120.484809,23.831926,往北,110
國道一號,,國道一號北向141.7公里,國道公路警察局,國道公路警二隊,120.788042,24.462055,往北,100
國道一號,,國道一號南向124公里,國道公路警察局,國道公路警二隊,120.860447,24.591946,往南,100
國道一號,,國道一號北向105.5公里,國道公路警察局,國道公路警二隊,120.942318,24.726501,往北,100
國道一號,,國道一號五楊高架北向64.3公里,國道公路警察局,國道公路警一隊,121.193528,24.941028,往北,100
國道一號,,國道一號南向60.1公里,國道公路警察局,國道公路警一隊,121.216665,24.970357,往南,100
國道一號,,國道一號五楊高架南向44.6公里,國道公路警察局,國道公路警一隊,121.332635,25.060703,往南,100
國道一號,,國道一號五楊高架北向38.8公里,國道公路警察局,國道公路警一隊,121.383882,25.065003,往北,100
國道一號,,國道一號汐五高架南向16.1公里,國道公路警察局,國道公路警一隊,121.601444,25.064278,往南,100
國道一號,,國道一號汐五高架北向16公里,國道公路警察局,國道公路警一隊,121.601696,25.063947,往北,100
國道二號,,國道二號西向6.4公里,國道公路警察局,國道公路警一隊,121.251802,25.028276,往西,100
國道二號,,國道二號東向18.5公里,國道公路警察局,國道公路警六隊,121.324863,24.959269,往東,100
國道三號,,國道三號北向318.7公里,國道公路警察局,國道公路警八隊,120.407292,23.298801,往北,110
國道三號,,國道三號南向386公里,國道公路警察局,國道公路警五隊,120.441593,22.769220,往南,110
國道三號,,國道三號北向423.2公里,國道公路警察局,國道公路警五隊,120.524929,22.507159,往北,110
國道三號,,國道三號北向171公里,國道公路警察局,國道公路警七隊,120.602093,24.293697,往北,110
國道三號,,國道三號北向206.6公里,國道公路警察局,國道公路警七隊,120.638645,24.071049,往北,110
國道三號,,國道三號北向235.2公里,國道公路警察局,國道公路警七隊,120.705086,23.869973,往北,110
國道三號,,國道三號北向131.2公里,國道公路警察局,國道公路警二隊,120.779073,24.591296,往北,110
國道三號,,國道三號南向112.2公里,國道公路警察局,國道公路警二隊,120.893935,24.715066,往南,110
國道三號,,國道三號南向81.5公里,國道公路警察局,國道公路警六隊,121.149866,24.807201,往南,110
國道三號,,國道三號北向57公里,國道公路警察局,國道公路警六隊,121.304277,24.924304,往北,110
國道三號,,國道三號北向38.3公里,國道公路警察局,國道公路警六隊,121.465517,24.977514,往北,100
國道三號,,國道三號北向25公里,國道公路警察局,國道公路警九隊,121.570830,24.976095,往北,90
國道三號,,國道三號北向14.5公里,國道公路警察局,國道公路警九隊,121.625791,25.046878,往北,90
國道五號,,國道五號北向5.7公里,國道公路警察局,國道公路警九隊,121.652551,24.994559,往北,80
國道五號,,國道五號南向18.3公里,國道公路警察局,國道公路警九隊,121.732855,24.916126,往南,90
國道五號,,國道五號南向21.1公里,國道公路警察局,國道公路警九隊,121.753732,24.899525,往南,90
國道五號,,國道五號北向34.9公里,國道公路警察局,國道公路警九隊,121.780956,24.791564,往北,90
